{"type":"FeatureCollection","source":{"dataset":"spain-communities.geojson","repository":"codeforgermany/click_that_hood","license":"MIT","note":"Simplificada para visualización; no usar para cálculo territorial."},"features":[{"type":"Feature","properties":{"territory_id":"castilla_y_leon","code":"07","display_name":"Castilla y León"},"geometry":{"type":"MultiPolygon","coordinates":[[[[-4.89358,43.23848],[-4.8392,43.18976],[-4.85178,43.17307],[-4.83457,43.15746],[-4.85143,43.12595],[-4.74399,43.05645],[-4.73927,43.02228],[-4.63813,43.01667],[-4.60608,43.03577],[-4.55845,43.01951],[-4.44755,43.05854],[-4.39811,43.03487],[-4.34849,42.97258],[-4.24025,42.95653],[-4.2367,42.91711],[-4.22257,42.91098],[-4.22468,42.85677],[-4.19969,42.84457],[-4.1812,42.85869],[-4.14426,42.86861],[-4.12848,42.84627],[-4.1827,42.81035],[-4.14992,42.78931],[-4.09849,42.79118],[-4.07173,42.76054],[-4.00744,42.83111],[-3.99965,42.76898],[-3.97889,42.75808],[-3.91095,42.76839],[-3.89445,42.80454],[-3.86338,42.78646],[-3.82221,42.79964],[-3.82674,42.87086],[-3.86374,42.88981],[-3.88019,42.85139],[-3.91483,42.86008],[-3.89747,42.88029],[-3.92435,42.88922],[-3.89293,42.88736],[-3.91058,42.91093],[-3.90782,42.91452],[-3.86861,42.89908],[-3.83355,42.91799],[-3.83954,42.93978],[-3.88738,42.94877],[-3.89128,42.92549],[-3.93354,42.8996],[-3.92999,42.91485],[-3.97462,42.91235],[-3.98717,42.94054],[-3.94546,43.00577],[-3.90926,43.0161],[-3.89075,43.04183],[-3.85079,43.03925],[-3.83177,43.06383],[-3.84696,43.0844],[-3.76457,43.08103],[-3.75488,43.10055],[-3.70468,43.11628],[-3.65175,43.18079],[-3.61245,43.16952],[-3.60354,43.14964],[-3.44476,43.13153],[-3.38887,43.14],[-3.25342,43.19858],[-3.22409,43.17013],[-3.14829,43.174],[-3.14136,43.16154],[-3.18179,43.12088],[-3.13394,43.09723],[-3.15819,43.07402],[-3.14031,43.06715],[-3.14186,43.02981],[-3.1778,43.02198],[-3.06026,43.00351],[-3.04148,42.96992],[-2.98126,42.93912],[-3.01891,42.90851],[-3.0921,42.89878],[-3.14927,42.91706],[-3.14473,42.93468],[-3.22473,42.94969],[-3.24855,42.91215],[-3.27724,42.90158],[-3.28261,42.87551],[-3.20553,42.8274],[-3.22218,42.83864],[-3.19069,42.86946],[-3.16282,42.85674],[-3.11494,42.88925],[-3.11315,42.86106],[-3.15923,42.80459],[-3.12325,42.78933],[-3.14791,42.7567],[-3.04965,42.76561],[-3.04201,42.73952],[-3.01695,42.74108],[-2.98063,42.70382],[-2.93136,42.7084],[-2.9025,42.6936],[-2.89606,42.65503],[-2.85809,42.6382],[-2.91601,42.61952],[-2.94645,42.63932],[-3.08415,42.64069],[-3.05983,42.58919],[-3.13427,42.54205],[-3.07257,42.52892],[-3.0947,42.48807],[-3.046,42.44515],[-3.0633,42.42491],[-3.05688,42.37027],[-3.08265,42.39738],[-3.07818,42.41575],[-3.10135,42.41678],[-3.10527,42.38637],[-3.08481,42.38539],[-3.06346,42.3567],[-3.10967,42.35145],[-3.08859,42.24573],[-3.12937,42.19849],[-3.03437,42.08596],[-2.93533,42.08941],[-2.91362,42.02285],[-2.88383,42.00949],[-2.79799,42.04684],[-2.80334,42.08048],[-2.77485,42.12354],[-2.73467,42.12495],[-2.70595,42.10356],[-2.75738,42.0331],[-2.74696,42.00928],[-2.57991,41.99626],[-2.54907,42.05151],[-2.51488,42.06886],[-2.51468,42.11454],[-2.48437,42.10635],[-2.43846,42.13727],[-2.3182,42.14518],[-2.28216,42.1317],[-2.26959,42.08855],[-2.20888,42.10466],[-2.12732,42.09717],[-2.12724,42.08046],[-2.16191,42.06673],[-2.10763,42.00277],[-2.12407,41.99531],[-2.10996,41.95787],[-2.03639,41.9394],[-2.02831,41.95339],[-1.9703,41.91914],[-1.85592,41.9663],[-1.85728,41.90951],[-1.8176,41.85338],[-1.81905,41.82875],[-1.85292,41.78956],[-1.80585,41.75508],[-1.80921,41.73666],[-1.77537,41.72479],[-1.78686,41.69943],[-1.81207,41.68645],[-1.80622,41.66426],[-1.85899,41.66153],[-1.9231,41.59833],[-1.99324,41.60051],[-1.99369,41.57709],[-1.96734,41.54607],[-1.98111,41.48644],[-1.95328,41.46245],[-1.95369,41.42426],[-1.93729,41.40785],[-2.02927,41.38416],[-2.04358,41.39715],[-2.03562,41.42689],[-2.10152,41.44579],[-2.11677,41.42495],[-2.11603,41.38205],[-2.16314,41.35535],[-2.17367,41.28809],[-2.14624,41.1844],[-2.0799,41.17098],[-2.05169,41.14685],[-2.06562,41.09579],[-2.04818,41.07838],[-2.07169,41.07249],[-2.13185,41.1181],[-2.1753,41.08375],[-2.23215,41.09701],[-2.26354,41.06753],[-2.32341,41.05651],[-2.35533,41.08645],[-2.41891,41.05771],[-2.46947,41.07811],[-2.48226,41.11627],[-2.50885,41.11886],[-2.53651,41.16253],[-2.57558,41.13947],[-2.59531,41.15025],[-2.57749,41.17866],[-2.62207,41.18799],[-2.59374,41.2002],[-2.58949,41.22454],[-2.6292,41.21522],[-2.64601,41.24021],[-2.70955,41.25198],[-2.71677,41.27567],[-2.76095,41.27402],[-2.77551,41.25008],[-2.82225,41.25661],[-2.86689,41.27446],[-2.86685,41.31307],[-2.88842,41.32524],[-2.94119,41.31394],[-2.95013,41.29264],[-3.0619,41.27343],[-3.19976,41.30443],[-3.23124,41.29487],[-3.25426,41.25838],[-3.41515,41.2732],[-3.41152,41.26071],[-3.3995,41.25454],[-3.40249,41.21362],[-3.44415,41.21534],[-3.46692,41.18326],[-3.51622,41.1623],[-3.6137,41.14905],[-3.67606,41.0867],[-3.74045,41.05364],[-3.78137,41.00031],[-3.9072,40.9553],[-3.95228,40.89363],[-3.94711,40.86297],[-3.97968,40.78455],[-4.0767,40.78888],[-4.09699,40.74774],[-4.17157,40.68063],[-4.17285,40.63036],[-4.16118,40.62347],[-4.24544,40.60245],[-4.26214,40.60518],[-4.2711,40.62902],[-4.29071,40.62782],[-4.27857,40.60317],[-4.28926,40.56419],[-4.32822,40.53376],[-4.31568,40.46477],[-4.34125,40.42868],[-4.32109,40.41031],[-4.42173,40.40623],[-4.45576,40.31935],[-4.5029,40.31489],[-4.52679,40.34487],[-4.54622,40.34183],[-4.52938,40.29313],[-4.56948,40.2573],[-4.56568,40.21819],[-4.65423,40.19807],[-4.68726,40.212],[-4.69814,40.28219],[-4.76159,40.2609],[-4.80425,40.27509],[-4.81825,40.25477],[-4.80767,40.23532],[-4.92467,40.16998],[-4.92545,40.13604],[-5.00579,40.10975],[-5.01854,40.15905],[-5.06698,40.15092],[-5.08777,40.12432],[-5.17162,40.08482],[-5.20352,40.08343],[-5.21531,40.10785],[-5.31884,40.1075],[-5.36791,40.16304],[-5.36967,40.21831],[-5.34374,40.26443],[-5.4291,40.25261],[-5.47091,40.20785],[-5.54115,40.19587],[-5.61452,40.2183],[-5.622,40.24588],[-5.6492,40.24972],[-5.69266,40.29211],[-5.79314,40.2867],[-5.80274,40.29763],[-5.78199,40.31246],[-5.7991,40.35371],[-5.88505,40.32613],[-5.91717,40.2777],[-5.96849,40.28956],[-6.01643,40.31652],[-6.01602,40.34029],[-6.10572,40.35679],[-6.06496,40.39661],[-6.12948,40.42079],[-6.11613,40.44159],[-6.14702,40.43612],[-6.15705,40.45661],[-6.23048,40.4866],[-6.27533,40.45852],[-6.34464,40.44278],[-6.3714,40.40187],[-6.41883,40.39929],[-6.43832,40.37277],[-6.53628,40.34724],[-6.56041,40.32905],[-6.55617,40.29078],[-6.58702,40.27072],[-6.67175,40.26323],[-6.69014,40.24266],[-6.71823,40.26924],[-6.7556,40.23892],[-6.8468,40.25443],[-6.86509,40.27063],[-6.86294,40.29744],[-6.79418,40.32879],[-6.781,40.36467],[-6.8348,40.40815],[-6.84969,40.45258],[-6.79503,40.51192],[-6.80083,40.55063],[-6.84482,40.56588],[-6.79389,40.66168],[-6.8312,40.75264],[-6.81698,40.80117],[-6.82612,40.84324],[-6.8003,40.84827],[-6.93009,41.03007],[-6.80836,41.03648],[-6.75399,41.10278],[-6.76742,41.13521],[-6.70132,41.18039],[-6.69195,41.20832],[-6.64777,41.24757],[-6.59912,41.24424],[-6.59139,41.25546],[-6.57339,41.23875],[-6.52182,41.276],[-6.49704,41.26561],[-6.41676,41.34751],[-6.37957,41.35723],[-6.38993,41.38537],[-6.3183,41.38612],[-6.33281,41.4115],[-6.18935,41.57502],[-6.30217,41.66274],[-6.44449,41.68483],[-6.49852,41.65713],[-6.54824,41.68562],[-6.54906,41.7254],[-6.56899,41.7435],[-6.51577,41.87073],[-6.57118,41.88362],[-6.54585,41.93593],[-6.5738,41.96067],[-6.58847,41.96775],[-6.62121,41.93995],[-6.69927,41.93333],[-6.75062,41.94339],[-6.7687,41.9839],[-6.78561,41.9889],[-6.81148,41.99252],[-6.82115,41.94631],[-6.84442,41.9423],[-6.94169,41.94429],[-6.95786,41.96929],[-6.98454,41.97363],[-6.99111,41.98834],[-6.9611,42.02791],[-6.97479,42.05516],[-7.01183,42.05242],[-7.03359,42.07424],[-6.87824,42.21952],[-6.8436,42.2283],[-6.78714,42.21572],[-6.80318,42.23867],[-6.767,42.25746],[-6.74115,42.29866],[-6.73395,42.35911],[-6.84231,42.40362],[-6.81427,42.42735],[-6.82277,42.45291],[-6.80839,42.46906],[-6.82669,42.49296],[-6.86006,42.48876],[-6.9322,42.52054],[-6.96009,42.51776],[-6.97854,42.49325],[-7.07705,42.50819],[-7.05985,42.52932],[-7.06967,42.55395],[-7.03356,42.58409],[-7.05017,42.59731],[-7.04701,42.6327],[-7.00436,42.64287],[-7.04519,42.69476],[-6.86743,42.78717],[-6.84032,42.82337],[-6.87128,42.87384],[-6.83374,42.88206],[-6.83541,42.87363],[-6.81489,42.87082],[-6.84799,42.91432],[-6.77693,42.90143],[-6.77151,42.88255],[-6.72319,42.91738],[-6.68991,42.92246],[-6.48977,42.92025],[-6.4331,42.93976],[-6.43364,42.96416],[-6.47301,42.96775],[-6.47814,42.99121],[-6.42408,42.98788],[-6.35909,43.05958],[-6.32649,43.03133],[-6.28519,43.03637],[-6.22681,43.00891],[-6.21556,43.0472],[-6.1784,43.0478],[-6.13667,43.02099],[-6.09596,43.03128],[-6.08188,43.07572],[-6.02021,43.05488],[-5.97504,43.06542],[-5.95674,43.01859],[-5.91462,42.9927],[-5.80401,42.96261],[-5.76386,42.97013],[-5.72838,43.04251],[-5.69335,43.05648],[-5.57014,43.02273],[-5.49375,43.02135],[-5.47852,43.05491],[-5.39045,43.04934],[-5.36914,43.09458],[-5.28212,43.07743],[-5.2166,43.08449],[-5.1478,43.11512],[-5.10173,43.10185],[-5.07586,43.18153],[-4.99686,43.1731],[-4.96392,43.21244],[-4.89358,43.23848]],[[-4.32222,40.65112],[-4.25604,40.65146],[-4.25388,40.66189],[-4.28997,40.68056],[-4.32222,40.65112]]],[[[-2.82771,42.78797],[-2.73155,42.79451],[-2.64371,42.76472],[-2.60235,42.77063],[-2.58937,42.75032],[-2.5583,42.76273],[-2.57263,42.72517],[-2.60898,42.69596],[-2.57777,42.66821],[-2.52202,42.68403],[-2.5174,42.64633],[-2.63485,42.6478],[-2.65917,42.67246],[-2.7679,42.66601],[-2.7845,42.69894],[-2.86846,42.73992],[-2.83547,42.79627],[-2.82771,42.78797]]],[[[-4.09801,42.82367],[-4.08771,42.80559],[-4.10104,42.79397],[-4.11308,42.81669],[-4.09801,42.82367]]],[[[-2.93489,42.59441],[-2.94521,42.60389],[-2.9345,42.61407],[-2.92263,42.60083],[-2.93489,42.59441]]],[[[-4.16859,42.81153],[-4.17456,42.81162],[-4.18234,42.82035],[-4.16308,42.82095],[-4.16859,42.81153]]],[[[-2.99194,42.60456],[-2.99452,42.61549],[-2.98522,42.61422],[-2.98286,42.6108],[-2.99194,42.60456]]]]}},{"type":"Feature","properties":{"territory_id":"cataluna","code":"09","display_name":"Cataluña"},"geometry":{"type":"MultiPolygon","coordinates":[[[[0.71604,42.85832],[0.85552,42.82684],[0.92641,42.78931],[0.96016,42.8059],[0.9839,42.7867],[1.07889,42.78834],[1.16614,42.70892],[1.2291,42.72776],[1.25272,42.71446],[1.35732,42.71972],[1.35108,42.70272],[1.38924,42.68702],[1.38744,42.66869],[1.41366,42.6556],[1.44302,42.60276],[1.42648,42.5828],[1.44495,42.56801],[1.41364,42.53535],[1.45054,42.53989],[1.46837,42.51002],[1.41914,42.48394],[1.44119,42.47536],[1.45518,42.43605],[1.552,42.43259],[1.56107,42.45865],[1.57919,42.44972],[1.59737,42.46632],[1.65702,42.46822],[1.66998,42.50419],[1.70361,42.4898],[1.72562,42.50437],[1.7307,42.49251],[1.8345,42.48292],[1.89195,42.44772],[1.93668,42.45441],[1.96543,42.38092],[2.01519,42.34738],[2.08459,42.36174],[2.14825,42.42043],[2.20667,42.41738],[2.25693,42.43874],[2.43272,42.39375],[2.4334,42.37762],[2.48091,42.34096],[2.53281,42.33293],[2.57101,42.35806],[2.67165,42.34075],[2.65138,42.3863],[2.67093,42.38717],[2.67367,42.40452],[2.75316,42.42624],[2.77717,42.41183],[2.83962,42.45926],[2.91842,42.4562],[2.94709,42.48212],[2.96741,42.46542],[3.04032,42.47352],[3.08519,42.42585],[3.17459,42.43537],[3.15271,42.39364],[3.16295,42.36046],[3.19653,42.33497],[3.22927,42.35156],[3.32227,42.3195],[3.28691,42.30367],[3.28627,42.29326],[3.29929,42.28451],[3.29056,42.28201],[3.2762,42.28709],[3.2769,42.27987],[3.28786,42.26573],[3.25371,42.2525],[3.26437,42.23787],[3.22952,42.25153],[3.21814,42.23232],[3.16262,42.26423],[3.11174,42.2059],[3.12387,42.12847],[3.17681,42.11154],[3.21227,42.0688],[3.19676,42.04261],[3.19594,42.01251],[3.2336,41.95048],[3.1769,41.86643],[3.12921,41.84114],[3.10219,41.84493],[3.05632,41.78757],[2.93477,41.71519],[2.81947,41.68886],[2.78912,41.66998],[2.77419,41.6474],[2.55544,41.57937],[2.36904,41.49045],[2.26647,41.45914],[2.11585,41.29048],[1.9348,41.26239],[1.73219,41.2073],[1.51333,41.17799],[1.3949,41.13162],[1.29793,41.12777],[1.22077,41.08357],[1.24911,41.10864],[1.20756,41.10026],[1.17034,41.05463],[1.12394,41.07476],[0.98709,41.04086],[0.86223,40.94708],[0.74134,40.82332],[0.69941,40.80396],[0.70813,40.78635],[0.72901,40.77017],[0.73675,40.76684],[0.78055,40.76828],[0.73025,40.78921],[0.76587,40.79228],[0.83087,40.73298],[0.87238,40.73474],[0.8806,40.71847],[0.86707,40.69291],[0.75767,40.64105],[0.70254,40.58087],[0.6693,40.56002],[0.61795,40.55346],[0.59499,40.57809],[0.70868,40.59089],[0.74523,40.63611],[0.60133,40.6221],[0.5147,40.52305],[0.44899,40.54129],[0.43341,40.56538],[0.44394,40.57822],[0.40276,40.60198],[0.27883,40.63006],[0.26783,40.659],[0.29184,40.68855],[0.1594,40.75006],[0.17536,40.74113],[0.17522,40.75494],[0.22997,40.76743],[0.23357,40.78699],[0.27823,40.82104],[0.23891,40.8847],[0.2935,40.97056],[0.25864,41.01463],[0.27966,41.02017],[0.21774,41.04366],[0.20094,41.12608],[0.29199,41.15636],[0.3224,41.22524],[0.38131,41.23643],[0.38566,41.27884],[0.34844,41.32887],[0.37397,41.35154],[0.32004,41.39418],[0.35533,41.45176],[0.34202,41.484],[0.39671,41.4903],[0.44692,41.54224],[0.42849,41.60238],[0.34961,41.59946],[0.35798,41.63172],[0.32624,41.6622],[0.32821,41.68107],[0.38474,41.74031],[0.39544,41.73198],[0.39868,41.75781],[0.4686,41.76498],[0.48323,41.80146],[0.60716,41.8718],[0.59278,41.88441],[0.59466,41.9174],[0.60749,41.91931],[0.56188,41.93822],[0.65729,42.0016],[0.71397,42.16342],[0.69873,42.1723],[0.70262,42.19004],[0.76462,42.32248],[0.74036,42.33687],[0.77131,42.35064],[0.72222,42.36742],[0.7461,42.38478],[0.69049,42.48762],[0.73976,42.50515],[0.72116,42.52454],[0.74955,42.53488],[0.74106,42.54483],[0.76753,42.61124],[0.69895,42.62857],[0.6959,42.65893],[0.65987,42.68864],[0.67616,42.69087],[0.68016,42.72325],[0.64258,42.75375],[0.66701,42.77532],[0.64504,42.78297],[0.67007,42.80194],[0.65975,42.83898],[0.71604,42.85832]]],[[[1.99713,42.48637],[1.98666,42.47146],[2.01277,42.44835],[1.95675,42.45769],[1.97884,42.49477],[1.99713,42.48637]]]]}},{"type":"Feature","properties":{"territory_id":"ceuta","code":"18","display_name":"Ceuta"},"geometry":{"type":"MultiPolygon","coordinates":[[[[-5.34497,35.87106],[-5.37291,35.88353],[-5.37886,35.91621],[-5.31696,35.8894],[-5.27873,35.90014],[-5.34497,35.87106]]]]}},{"type":"Feature","properties":{"territory_id":"region_de_murcia","code":"14","display_name":"Región de Murcia"},"geometry":{"type":"MultiPolygon","coordinates":[[[[-1.14985,38.74607],[-1.11967,38.73772],[-1.1156,38.71139],[-1.02607,38.65453],[-1.00157,38.57267],[-1.02606,38.52282],[-1.01364,38.49673],[-1.09416,38.43793],[-1.07721,38.43147],[-1.08438,38.34622],[-0.98915,38.32088],[-0.96768,38.27564],[-0.98855,38.19953],[-1.03676,38.13772],[-1.0226,38.07569],[-0.90018,37.92313],[-0.83073,37.86442],[-0.76239,37.84695],[-0.75086,37.82181],[-0.75221,37.7882],[-0.77576,37.81911],[-0.79627,37.8105],[-0.79802,37.78479],[-0.84483,37.74804],[-0.85703,37.71336],[-0.80277,37.6582],[-0.72767,37.63479],[-0.74647,37.78075],[-0.74506,37.7588],[-0.72783,37.75009],[-0.72142,37.74003],[-0.72719,37.74674],[-0.73306,37.74692],[-0.73824,37.73461],[-0.73146,37.67849],[-0.70972,37.64131],[-0.68829,37.63276],[-0.70222,37.63026],[-0.73185,37.6015],[-0.82,37.57502],[-0.87635,37.57736],[-0.91925,37.55394],[-0.96041,37.55867],[-0.9674,37.56929],[-0.94976,37.56762],[-0.992,37.60153],[-0.98413,37.5843],[-1.01799,37.57275],[-1.03117,37.57912],[-1.07402,37.58415],[-1.10866,37.56937],[-1.12714,37.55212],[-1.11106,37.53408],[-1.16647,37.54207],[-1.17393,37.56297],[-1.21348,37.57534],[-1.24623,37.57609],[-1.25575,37.55758],[-1.32618,37.56273],[-1.40159,37.50722],[-1.45968,37.48657],[-1.48622,37.42292],[-1.51901,37.43178],[-1.62676,37.3739],[-1.73707,37.44263],[-1.81176,37.45156],[-1.80895,37.43347],[-1.84526,37.45483],[-2.01181,37.67225],[-1.99583,37.72805],[-2.00884,37.77495],[-1.99528,37.84139],[-1.9745,37.86847],[-1.9947,37.88048],[-2.02182,37.86822],[-2.10039,37.8772],[-2.1232,37.90055],[-2.17201,37.88869],[-2.24716,37.93443],[-2.29847,38.00212],[-2.34163,38.026],[-2.3299,38.0654],[-2.26165,38.11296],[-2.21294,38.20302],[-2.11373,38.2382],[-2.04899,38.30578],[-1.98263,38.28137],[-1.90754,38.29796],[-1.74512,38.38123],[-1.68756,38.36583],[-1.69273,38.33782],[-1.67025,38.31165],[-1.58954,38.30999],[-1.5582,38.3252],[-1.47855,38.37638],[-1.47987,38.47984],[-1.49873,38.53206],[-1.48769,38.56331],[-1.452,38.58146],[-1.4477,38.64952],[-1.42166,38.67699],[-1.36667,38.704],[-1.34407,38.6771],[-1.24959,38.73869],[-1.18363,38.75509],[-1.14985,38.74607]]],[[[-0.7705,37.70244],[-0.7646,37.69371],[-0.76849,37.69024],[-0.77615,37.69568],[-0.7705,37.70244]]],[[[-0.79636,37.70104],[-0.79755,37.69601],[-0.80437,37.70152],[-0.79996,37.70372],[-0.79636,37.70104]]]]}},{"type":"Feature","properties":{"territory_id":"la_rioja","code":"17","display_name":"La Rioja"},"geometry":{"type":"MultiPolygon","coordinates":[[[[-2.99723,42.64214],[-2.94645,42.63932],[-2.91601,42.61952],[-2.85297,42.63618],[-2.8418,42.6086],[-2.81877,42.61272],[-2.8199,42.59147],[-2.84085,42.58119],[-2.82297,42.55474],[-2.77795,42.58134],[-2.76372,42.62284],[-2.74077,42.62255],[-2.68054,42.59452],[-2.70569,42.51716],[-2.67578,42.52573],[-2.64775,42.48326],[-2.60543,42.50352],[-2.59699,42.47294],[-2.56826,42.49415],[-2.53048,42.48357],[-2.53735,42.49524],[-2.50974,42.52006],[-2.51472,42.49012],[-2.41562,42.49057],[-2.34584,42.45137],[-2.32999,42.4688],[-2.29872,42.45741],[-2.28801,42.46736],[-2.27448,42.44547],[-2.17504,42.40777],[-2.1119,42.41996],[-2.11551,42.39908],[-2.07864,42.36813],[-2.08996,42.34697],[-2.06998,42.34252],[-2.01601,42.3693],[-1.97106,42.35347],[-1.87066,42.28897],[-1.87228,42.25267],[-1.68012,42.19157],[-1.7009,42.17312],[-1.67966,42.15169],[-1.71989,42.13344],[-1.73974,42.14974],[-1.779,42.1377],[-1.83242,42.14823],[-1.90924,42.05912],[-1.90158,42.02968],[-1.84719,42.008],[-1.84404,41.98733],[-1.86519,41.9776],[-1.85654,41.9664],[-1.9703,41.91914],[-2.02831,41.95339],[-2.03639,41.9394],[-2.11436,41.96114],[-2.12407,41.99531],[-2.10763,42.00277],[-2.16191,42.06673],[-2.12724,42.08046],[-2.13338,42.10114],[-2.23648,42.10251],[-2.26959,42.08855],[-2.28216,42.1317],[-2.3182,42.14518],[-2.43846,42.13727],[-2.48437,42.10635],[-2.51468,42.11454],[-2.51488,42.06886],[-2.54907,42.05151],[-2.57991,41.99626],[-2.74696,42.00928],[-2.75738,42.0331],[-2.70595,42.10356],[-2.73467,42.12495],[-2.79161,42.10875],[-2.79799,42.04684],[-2.88951,42.0104],[-2.91362,42.02285],[-2.93118,42.08678],[-3.03437,42.08596],[-3.12945,42.19896],[-3.08859,42.24573],[-3.10967,42.35145],[-3.06346,42.3567],[-3.08481,42.38539],[-3.10527,42.38637],[-3.10135,42.41678],[-3.07818,42.41575],[-3.08265,42.39738],[-3.05688,42.37027],[-3.0633,42.42491],[-3.046,42.44515],[-3.0947,42.48807],[-3.07257,42.52892],[-3.13427,42.54205],[-3.05983,42.58919],[-3.08415,42.64069],[-2.99723,42.64214]],[[-2.94521,42.60389],[-2.93918,42.59429],[-2.92263,42.60083],[-2.9345,42.61407],[-2.94521,42.60389]],[[-2.99898,42.60177],[-2.98625,42.60705],[-2.98522,42.61422],[-2.99452,42.61549],[-2.99898,42.60177]]]]}},{"type":"Feature","properties":{"territory_id":"illes_balears","code":"04","display_name":"Islas Baleares"},"geometry":{"type":"MultiPolygon","coordinates":[[[[3.21365,39.95751],[3.08004,39.90227],[3.08379,39.87548],[3.10564,39.85765],[3.19036,39.89242],[3.20446,39.88881],[3.18825,39.88162],[3.19721,39.86186],[3.17855,39.84058],[3.12077,39.83209],[3.13507,39.78267],[3.25259,39.72937],[3.32891,39.7598],[3.34812,39.78937],[3.43219,39.7451],[3.46132,39.7481],[3.45269,39.72249],[3.47869,39.71581],[3.43629,39.63427],[3.39689,39.62831],[3.38502,39.5928],[3.40407,39.57944],[3.33186,39.54044],[3.34032,39.53488],[3.29184,39.49429],[3.27486,39.41593],[3.26711,39.42784],[3.26096,39.42403],[3.2444,39.37744],[3.22213,39.37287],[3.23223,39.36164],[3.188,39.35194],[3.17105,39.32653],[3.1464,39.32997],[3.06876,39.26672],[3.05012,39.2656],[3.01355,39.31044],[2.98605,39.31591],[2.9908,39.33677],[2.95782,39.36248],[2.91351,39.35242],[2.88194,39.36616],[2.78734,39.36306],[2.74203,39.40624],[2.74731,39.44147],[2.722,39.47572],[2.74841,39.51066],[2.66953,39.56246],[2.63271,39.56843],[2.61991,39.54956],[2.63944,39.55262],[2.63246,39.5452],[2.54104,39.52483],[2.52174,39.4566],[2.47608,39.46626],[2.47915,39.49194],[2.45618,39.50477],[2.47961,39.51761],[2.45675,39.53429],[2.41944,39.52289],[2.41366,39.53901],[2.38693,39.52088],[2.38853,39.53375],[2.36301,39.5328],[2.39051,39.54621],[2.3465,39.5646],[2.35601,39.60556],[2.46222,39.65201],[2.52787,39.70155],[2.58551,39.71628],[2.77837,39.85559],[2.84501,39.86174],[2.95037,39.92008],[2.98266,39.90825],[3.02814,39.93508],[3.06101,39.93264],[3.0603,39.91984],[3.1205,39.93138],[3.16567,39.95992],[3.21365,39.95751]]],[[[4.09416,40.08797],[4.09285,40.0596],[4.10336,40.04448],[4.13353,40.06325],[4.1266,40.02615],[4.14081,40.03592],[4.13655,40.06708],[4.15549,40.06791],[4.20528,39.99303],[4.20756,40.01302],[4.22046,39.99669],[4.26985,39.99654],[4.25485,39.99286],[4.26617,39.98192],[4.25477,39.96394],[4.32779,39.87696],[4.2565,39.89711],[4.30743,39.86543],[4.28754,39.81518],[4.20819,39.82483],[4.05861,39.90595],[3.95951,39.93835],[3.90018,39.92247],[3.82098,39.9256],[3.83595,40.00245],[3.79901,39.99778],[3.79079,40.01613],[3.82235,40.05115],[4.05373,40.05187],[4.08939,40.06898],[4.08149,40.08911],[4.09416,40.08797]]],[[[1.53253,39.11839],[1.55714,39.09331],[1.60424,39.09089],[1.59846,39.08242],[1.60991,39.0793],[1.58798,39.06332],[1.62154,39.0277],[1.58522,39.01572],[1.57788,39.00106],[1.58134,38.98934],[1.52738,38.98244],[1.52885,38.94497],[1.42128,38.9036],[1.40316,38.87485],[1.40633,38.83172],[1.38446,38.8424],[1.3712,38.83042],[1.34326,38.87106],[1.32042,38.85578],[1.31476,38.86808],[1.29739,38.86221],[1.29587,38.87716],[1.26771,38.87803],[1.2553,38.85974],[1.24805,38.8558],[1.22417,38.87081],[1.21331,38.90199],[1.23648,38.93879],[1.21494,38.95816],[1.22918,38.97454],[1.30653,38.97241],[1.28446,38.99386],[1.29894,39.00953],[1.29393,39.03154],[1.35884,39.07406],[1.49836,39.09878],[1.53253,39.11839]]],[[[1.43589,38.76176],[1.49647,38.68824],[1.53029,38.67281],[1.56906,38.69162],[1.58472,38.6628],[1.52413,38.65301],[1.44718,38.68499],[1.38553,38.64134],[1.38027,38.71931],[1.39657,38.73548],[1.41925,38.72251],[1.43327,38.77165],[1.43589,38.76176]]],[[[2.9512,39.16548],[2.9766,39.15803],[2.95665,39.14757],[2.95793,39.12691],[2.9195,39.12895],[2.91689,39.16162],[2.93168,39.14333],[2.93109,39.15649],[2.94967,39.14841],[2.9512,39.16548]]],[[[2.33858,39.5977],[2.31866,39.57673],[2.30319,39.57282],[2.30971,39.58347],[2.33858,39.5977]]],[[[2.96622,39.19046],[2.97296,39.18665],[2.96162,39.17544],[2.95502,39.18235],[2.96622,39.19046]]],[[[1.42342,38.79657],[1.43162,38.78414],[1.43333,38.77494],[1.42342,38.79657]]],[[[1.21477,38.98959],[1.21892,38.9784],[1.21408,38.97593],[1.20623,38.98943],[1.21477,38.98959]]],[[[1.20023,38.87067],[1.203,38.86466],[1.18843,38.8626],[1.19557,38.86992],[1.20023,38.87067]]],[[[4.27806,39.96668],[4.28403,39.95981],[4.27296,39.95671],[4.27355,39.96435],[4.27806,39.96668]]],[[[1.64143,39.04152],[1.64643,39.04046],[1.65044,39.03222],[1.63983,39.03476],[1.64143,39.04152]]],[[[1.47785,38.80025],[1.48241,38.79924],[1.4803,38.78797],[1.47785,38.80025]]],[[[4.29002,39.80232],[4.29611,39.80027],[4.28543,39.79929],[4.28197,39.80097],[4.29002,39.80232]]],[[[1.19861,38.9597],[1.19872,38.95642],[1.18977,38.95782],[1.19296,38.95975],[1.19861,38.9597]]]]}},{"type":"Feature","properties":{"territory_id":"canarias","code":"05","display_name":"Canarias"},"geometry":{"type":"MultiPolygon","coordinates":[[[[-16.15754,28.58816],[-16.12669,28.57072],[-16.1257,28.5321],[-16.23716,28.48539],[-16.24627,28.47112],[-16.23567,28.47905],[-16.24708,28.45568],[-16.24279,28.46805],[-16.36036,28.37954],[-16.36146,28.30435],[-16.4247,28.20446],[-16.42515,28.15009],[-16.54696,28.02481],[-16.59524,28.0291],[-16.64433,28.00352],[-16.70234,28.00407],[-16.71162,28.04684],[-16.73775,28.05502],[-16.73762,28.08673],[-16.77704,28.11713],[-16.807,28.17449],[-16.83759,28.20759],[-16.8412,28.26437],[-16.89664,28.33215],[-16.92597,28.34192],[-16.91815,28.36074],[-16.83202,28.39327],[-16.80829,28.37617],[-16.75185,28.37068],[-16.67435,28.40202],[-16.60397,28.39423],[-16.55485,28.41888],[-16.53331,28.41669],[-16.51428,28.41899],[-16.456,28.46008],[-16.42871,28.48936],[-16.41097,28.52715],[-16.33422,28.55768],[-16.32907,28.57679],[-16.22365,28.56541],[-16.19305,28.57202],[-16.15754,28.58816]]],[[[-13.89051,28.75685],[-13.83632,28.71275],[-13.8243,28.55282],[-13.86723,28.4803],[-13.84988,28.40113],[-13.91735,28.25195],[-14.01261,28.20769],[-14.21827,28.16558],[-14.33159,28.04462],[-14.4778,28.07747],[-14.50719,28.06407],[-14.49143,28.11091],[-14.45023,28.10009],[-14.37297,28.11713],[-14.22254,28.21512],[-14.20369,28.32839],[-14.03346,28.593],[-14.03876,28.61507],[-14.00892,28.67754],[-14.02104,28.70728],[-13.97671,28.73524],[-13.89051,28.75685]]],[[[-15.41889,28.1804],[-15.40115,28.16647],[-15.40733,28.13275],[-15.40698,28.15837],[-15.41757,28.12823],[-15.41733,28.14616],[-15.42776,28.14669],[-15.4111,28.10084],[-15.41975,28.05971],[-15.37324,28.00947],[-15.38433,27.96734],[-15.35848,27.93133],[-15.38439,27.92702],[-15.38587,27.8574],[-15.41633,27.84416],[-15.42437,27.80821],[-15.5989,27.73458],[-15.65901,27.75668],[-15.67456,27.74923],[-15.78764,27.83471],[-15.8338,27.91049],[-15.83451,27.97107],[-15.82293,28.01349],[-15.78636,28.02109],[-15.71093,28.08302],[-15.69633,28.1516],[-15.70934,28.1656],[-15.5269,28.15526],[-15.46741,28.12605],[-15.45372,28.12796],[-15.4375,28.13789],[-15.43154,28.15132],[-15.44149,28.16655],[-15.41889,28.1804]]],[[[-13.46761,29.2294],[-13.42388,29.20871],[-13.41948,29.1844],[-13.4291,29.15422],[-13.46445,29.12804],[-13.4475,29.08907],[-13.4861,28.99276],[-13.64073,28.92032],[-13.73643,28.90674],[-13.78706,28.83853],[-13.80182,28.85901],[-13.87637,28.85865],[-13.88166,28.88617],[-13.82906,28.93024],[-13.83441,28.98938],[-13.81544,29.03341],[-13.65774,29.12354],[-13.63318,29.11585],[-13.60183,29.13611],[-13.54763,29.11853],[-13.52462,29.14113],[-13.49686,29.21823],[-13.46761,29.2294]]],[[[-17.91069,28.85763],[-17.85808,28.83265],[-17.77755,28.84016],[-17.72464,28.74309],[-17.77006,28.67706],[-17.74993,28.6243],[-17.76016,28.5699],[-17.84056,28.4528],[-18.0072,28.75771],[-18.00574,28.78444],[-17.92016,28.85729],[-17.91069,28.85763]]],[[[-17.26073,28.21797],[-17.24507,28.20082],[-17.20634,28.19679],[-17.19608,28.20005],[-17.18394,28.18028],[-17.119,28.15355],[-17.10351,28.12843],[-17.09846,28.0956],[-17.1679,28.03585],[-17.26967,28.025],[-17.3489,28.0982],[-17.32037,28.20335],[-17.27369,28.21446],[-17.26073,28.21797]]],[[[-17.92516,27.84951],[-17.9018,27.84201],[-17.88351,27.81329],[-17.88352,27.80315],[-17.92697,27.73233],[-17.95703,27.71999],[-17.97786,27.63954],[-18.00989,27.64977],[-18.05044,27.69255],[-18.16029,27.71506],[-18.15164,27.76057],[-18.03675,27.76203],[-17.98913,27.79976],[-17.99345,27.82279],[-17.92516,27.84951]]],[[[-13.50798,29.29077],[-13.47161,29.26573],[-13.50475,29.22499],[-13.54396,29.21851],[-13.50798,29.29077]]],[[[-13.50487,29.41562],[-13.49178,29.39685],[-13.5287,29.38508],[-13.52396,29.41079],[-13.51885,29.41024],[-13.50487,29.41562]]],[[[-13.81283,28.76519],[-13.8157,28.73659],[-13.8308,28.73964],[-13.83574,28.75253],[-13.81283,28.76519]]],[[[-13.53403,29.3037],[-13.53133,29.29043],[-13.53907,29.28908],[-13.54027,29.30258],[-13.53403,29.3037]]]]}},{"type":"Feature","properties":{"territory_id":"cantabria","code":"06","display_name":"Cantabria"},"geometry":{"type":"MultiPolygon","coordinates":[[[[-3.59024,43.51356],[-3.54634,43.50771],[-3.49783,43.47224],[-3.43088,43.462],[-3.42978,43.44101],[-3.46497,43.4446],[-3.49168,43.4248],[-3.46357,43.43128],[-3.46472,43.40394],[-3.45005,43.43606],[-3.42524,43.41325],[-3.32379,43.41916],[-3.32076,43.40279],[-3.22129,43.3939],[-3.22589,43.38761],[-3.21189,43.37484],[-3.15329,43.35332],[-3.15152,43.30685],[-3.20951,43.28354],[-3.22523,43.30894],[-3.27945,43.29005],[-3.33241,43.30188],[-3.34013,43.27803],[-3.44906,43.23591],[-3.41765,43.13343],[-3.60354,43.14964],[-3.61245,43.16952],[-3.65102,43.18104],[-3.70468,43.11628],[-3.75488,43.10055],[-3.76457,43.08103],[-3.84696,43.0844],[-3.83177,43.06383],[-3.84987,43.04022],[-3.89075,43.04183],[-3.90926,43.0161],[-3.953,43.0001],[-3.99098,42.93109],[-3.97372,42.91192],[-3.92964,42.9147],[-3.93354,42.8996],[-3.86709,42.95483],[-3.83057,42.9292],[-3.86681,42.89923],[-3.90782,42.91452],[-3.89293,42.88736],[-3.92435,42.88922],[-3.89747,42.88029],[-3.91483,42.86008],[-3.87982,42.85133],[-3.86374,42.88981],[-3.83479,42.87736],[-3.81603,42.81056],[-3.86204,42.78652],[-3.89445,42.80454],[-3.91095,42.76839],[-3.97729,42.75805],[-3.99965,42.76898],[-4.00356,42.83141],[-4.05469,42.76303],[-4.08134,42.76146],[-4.10517,42.79303],[-4.14992,42.78931],[-4.18543,42.8173],[-4.14045,42.829],[-4.12612,42.85664],[-4.1499,42.87113],[-4.21423,42.84717],[-4.24025,42.95653],[-4.34849,42.97258],[-4.39811,43.03487],[-4.44755,43.05854],[-4.55845,43.01951],[-4.60608,43.03577],[-4.63813,43.01667],[-4.72282,43.01724],[-4.74326,43.02816],[-4.74399,43.05645],[-4.85143,43.12595],[-4.83457,43.15746],[-4.84807,43.17814],[-4.73416,43.18988],[-4.7196,43.23645],[-4.73095,43.25734],[-4.63188,43.26765],[-4.60655,43.30055],[-4.55524,43.2881],[-4.54777,43.26869],[-4.52351,43.27817],[-4.52235,43.33578],[-4.53881,43.35593],[-4.5115,43.39366],[-4.17523,43.40105],[-4.08123,43.43832],[-3.97869,43.44087],[-3.9571,43.45582],[-3.94555,43.47115],[-3.89493,43.47083],[-3.7852,43.49177],[-3.76329,43.4672],[-3.81433,43.44947],[-3.82534,43.45167],[-3.81515,43.43701],[-3.83069,43.43516],[-3.80372,43.42661],[-3.82271,43.41358],[-3.81602,43.40181],[-3.77914,43.42097],[-3.79128,43.43221],[-3.77611,43.44941],[-3.76526,43.44628],[-3.74613,43.45153],[-3.77718,43.45822],[-3.73462,43.45928],[-3.59024,43.51356]],[[-4.1106,42.82385],[-4.10438,42.7972],[-4.08906,42.79989],[-4.08852,42.81849],[-4.1106,42.82385]],[[-4.17462,42.82308],[-4.17456,42.81162],[-4.1611,42.81312],[-4.16308,42.82095],[-4.17462,42.82308]]],[[[-3.26022,43.26358],[-3.24942,43.25966],[-3.26977,43.23205],[-3.26519,43.20577],[-3.28581,43.1979],[-3.3046,43.25869],[-3.26022,43.26358]]]]}},{"type":"Feature","properties":{"territory_id":"andalucia","code":"01","display_name":"Andalucía"},"geometry":{"type":"MultiPolygon","coordinates":[[[[-5.03541,38.72619],[-5.00447,38.71183],[-5.0046,38.6951],[-4.87697,38.68609],[-4.86017,38.61398],[-4.70737,38.57195],[-4.70395,38.55317],[-4.62278,38.52379],[-4.59369,38.48638],[-4.5663,38.49094],[-4.51269,38.46385],[-4.45299,38.40087],[-4.28733,38.34276],[-4.26887,38.34717],[-4.2768,38.39021],[-4.25778,38.40158],[-4.15656,38.38132],[-3.91512,38.36881],[-3.85428,38.37514],[-3.83056,38.3929],[-3.83006,38.4128],[-3.78561,38.42527],[-3.59824,38.39847],[-3.58308,38.45147],[-3.54189,38.44539],[-3.52844,38.40864],[-3.4517,38.40032],[-3.37668,38.4396],[-3.37501,38.47523],[-3.32649,38.48212],[-3.27942,38.46024],[-3.13829,38.43858],[-3.06497,38.47825],[-3.00171,38.40832],[-2.99351,38.45012],[-2.96359,38.47145],[-2.90579,38.46991],[-2.88149,38.45264],[-2.77996,38.50971],[-2.7677,38.53291],[-2.67969,38.49692],[-2.59372,38.51129],[-2.56662,38.49047],[-2.57355,38.41625],[-2.4834,38.39786],[-2.48521,38.30026],[-2.44137,38.28563],[-2.43539,38.26502],[-2.45434,38.21549],[-2.44628,38.18519],[-2.5513,38.08409],[-2.42341,38.0337],[-2.34071,38.02555],[-2.29847,38.00212],[-2.24716,37.93443],[-2.17201,37.88869],[-2.1232,37.90055],[-2.10039,37.8772],[-2.02182,37.86822],[-1.9947,37.88048],[-1.9745,37.86847],[-2.01265,37.7006],[-2.01181,37.67225],[-1.97681,37.61873],[-1.84526,37.45483],[-1.80895,37.43347],[-1.81176,37.45156],[-1.73707,37.44263],[-1.63075,37.37361],[-1.79756,37.22961],[-1.84948,37.06835],[-1.90076,36.98776],[-1.90374,36.93737],[-1.94053,36.93652],[-1.9673,36.89886],[-1.99208,36.89373],[-1.99961,36.84002],[-2.06002,36.80972],[-2.06028,36.77782],[-2.1062,36.76265],[-2.12428,36.732],[-2.19341,36.7211],[-2.29123,36.82007],[-2.36149,36.8416],[-2.42655,36.81074],[-2.47512,36.83703],[-2.46412,36.82585],[-2.48195,36.83558],[-2.56193,36.81613],[-2.61965,36.72696],[-2.70033,36.683],[-2.77154,36.68143],[-2.8156,36.70629],[-2.84948,36.69547],[-2.92672,36.75178],[-2.97768,36.73833],[-3.2589,36.75341],[-3.33886,36.73828],[-3.41991,36.69389],[-3.48267,36.69727],[-3.52587,36.72413],[-3.5537,36.71495],[-3.60201,36.74464],[-3.65772,36.74656],[-3.7275,36.71917],[-3.74983,36.73801],[-3.76759,36.72923],[-3.83548,36.75404],[-3.95719,36.72609],[-4.06686,36.74876],[-4.10847,36.72534],[-4.18078,36.71468],[-4.39375,36.72234],[-4.4153,36.70699],[-4.41381,36.7184],[-4.51166,36.59314],[-4.60281,36.56296],[-4.63825,36.50703],[-4.74054,36.48263],[-4.91315,36.50539],[-5.0049,36.45974],[-5.08098,36.45056],[-5.17694,36.41427],[-5.21941,36.37627],[-5.24607,36.31224],[-5.31665,36.22987],[-5.33865,36.15346],[-5.42687,36.17562],[-5.44728,36.14028],[-5.44045,36.12401],[-5.43001,36.14075],[-5.44356,36.08987],[-5.42934,36.07115],[-5.61025,36.0001],[-5.6525,36.05316],[-5.79724,36.07827],[-5.9149,36.18477],[-6.03428,36.18101],[-6.10276,36.28411],[-6.143,36.29656],[-6.3096,36.5286],[-6.27936,36.543],[-6.29229,36.53287],[-6.27684,36.54074],[-6.26863,36.532],[-6.28193,36.52748],[-6.25643,36.50782],[-6.2576,36.47311],[-6.22984,36.4626],[-6.17317,36.52131],[-6.20053,36.52873],[-6.20787,36.50958],[-6.24206,36.50619],[-6.25797,36.52919],[-6.22912,36.52507],[-6.23282,36.58492],[-6.24938,36.57228],[-6.23822,36.58448],[-6.26593,36.57983],[-6.29982,36.61786],[-6.39451,36.63381],[-6.44268,36.73825],[-6.3424,36.79461],[-6.39719,36.80728],[-6.44926,36.90779],[-6.52188,36.97716],[-6.91634,37.17616],[-6.83214,37.108],[-6.92413,37.16485],[-7.04365,37.20746],[-7.27089,37.20178],[-7.37635,37.17124],[-7.40625,37.18102],[-7.46377,37.48691],[-7.51149,37.52444],[-7.52285,37.5534],[-7.50675,37.55751],[-7.50385,37.60446],[-7.48904,37.60364],[-7.44415,37.66473],[-7.4525,37.67812],[-7.42111,37.75912],[-7.32413,37.81577],[-7.28346,37.86908],[-7.2485,37.95448],[-7.26319,37.97985],[-7.20222,38.00348],[-7.13285,37.99995],[-7.1207,38.00521],[-7.12813,38.02987],[-7.09878,38.04384],[-7.0593,38.01744],[-7.0024,38.02266],[-6.98736,38.1039],[-6.95211,38.15278],[-6.96888,38.16619],[-6.93166,38.20832],[-6.84843,38.17724],[-6.79509,38.17854],[-6.81581,38.12014],[-6.77006,38.11211],[-6.75822,38.09271],[-6.6221,38.09701],[-6.58053,38.05277],[-6.58233,38.02085],[-6.54569,38.02812],[-6.47656,38.00783],[-6.44361,38.04696],[-6.45244,38.05596],[-6.4139,38.05856],[-6.36725,38.04892],[-6.35271,38.0074],[-6.30363,37.97834],[-6.20152,37.96206],[-6.18024,37.94103],[-6.11531,37.98177],[-5.95369,37.99535],[-5.93422,38.04688],[-5.90898,38.06285],[-5.92638,38.10501],[-5.88066,38.13228],[-5.87738,38.15572],[-5.85152,38.17191],[-5.75728,38.18056],[-5.72816,38.19742],[-5.69473,38.18652],[-5.68424,38.15706],[-5.70579,38.16938],[-5.69471,38.15035],[-5.74074,38.12654],[-5.7349,38.08626],[-5.71043,38.08105],[-5.6325,38.13856],[-5.58479,38.13171],[-5.57586,38.14964],[-5.53967,38.16069],[-5.5225,38.2384],[-5.55123,38.31098],[-5.57565,38.32911],[-5.55925,38.36689],[-5.58507,38.38584],[-5.56892,38.43259],[-5.41862,38.51273],[-5.37175,38.58357],[-5.30851,38.57762],[-5.20848,38.6677],[-5.18423,38.65973],[-5.18576,38.67417],[-5.16732,38.68047],[-5.1845,38.7197],[-5.09919,38.70765],[-5.03541,38.72619]]]]}},{"type":"Feature","properties":{"territory_id":"principado_de_asturias","code":"03","display_name":"Principado de Asturias"},"geometry":{"type":"MultiPolygon","coordinates":[[[[-5.84083,43.66062],[-5.83002,43.64012],[-5.7831,43.6313],[-5.79097,43.6142],[-5.75558,43.58337],[-5.71197,43.56862],[-5.67611,43.57098],[-5.70126,43.56615],[-5.67916,43.54124],[-5.61756,43.55902],[-5.49378,43.54402],[-5.41325,43.55487],[-5.38822,43.52974],[-5.2954,43.53516],[-5.21623,43.4749],[-4.92607,43.46239],[-4.69931,43.40479],[-4.68087,43.40923],[-4.56744,43.39202],[-4.51873,43.39581],[-4.51084,43.37991],[-4.53444,43.36834],[-4.53946,43.34396],[-4.52235,43.33578],[-4.52171,43.28063],[-4.54777,43.26869],[-4.55524,43.2881],[-4.60655,43.30055],[-4.63188,43.26765],[-4.73095,43.25734],[-4.71968,43.23582],[-4.74581,43.18412],[-4.84102,43.18078],[-4.87124,43.22813],[-4.91143,43.23736],[-4.96392,43.21244],[-4.99686,43.1731],[-5.07586,43.18153],[-5.10173,43.10185],[-5.1478,43.11512],[-5.2166,43.08449],[-5.28212,43.07743],[-5.36914,43.09458],[-5.39045,43.04934],[-5.47852,43.05491],[-5.49375,43.02135],[-5.57014,43.02273],[-5.69335,43.05648],[-5.72838,43.04251],[-5.76386,42.97013],[-5.80401,42.96261],[-5.91462,42.9927],[-5.95674,43.01859],[-5.97504,43.06542],[-6.02021,43.05488],[-6.08188,43.07572],[-6.09596,43.03128],[-6.13667,43.02099],[-6.1784,43.0478],[-6.21556,43.0472],[-6.22681,43.00891],[-6.28519,43.03637],[-6.32649,43.03133],[-6.35909,43.05958],[-6.42408,42.98788],[-6.47814,42.99121],[-6.47301,42.96775],[-6.43364,42.96416],[-6.4331,42.93976],[-6.54123,42.91251],[-6.63878,42.92546],[-6.72266,42.91748],[-6.77285,42.88254],[-6.77067,42.89862],[-6.8358,42.91635],[-6.83609,42.95776],[-6.87107,42.98858],[-6.91032,42.99014],[-6.9571,43.03678],[-6.96196,42.99072],[-6.99717,43.01948],[-6.93869,43.08651],[-6.91559,43.07342],[-6.8276,43.12319],[-6.82155,43.14324],[-6.83891,43.16614],[-6.87171,43.17986],[-6.86825,43.19002],[-6.88541,43.1568],[-6.95736,43.13548],[-6.98077,43.16655],[-6.9649,43.18755],[-6.97102,43.20425],[-7.06159,43.24405],[-7.07151,43.27122],[-7.05978,43.30533],[-7.10093,43.30381],[-7.13121,43.33135],[-7.12753,43.3726],[-7.18249,43.39246],[-7.16855,43.40359],[-7.17299,43.43041],[-7.10166,43.42748],[-7.08915,43.45512],[-7.04827,43.47708],[-7.04718,43.50899],[-7.02322,43.55958],[-6.62631,43.5729],[-6.59849,43.55403],[-6.5333,43.54523],[-6.4745,43.55025],[-6.47023,43.57116],[-6.35577,43.55115],[-6.24451,43.59518],[-6.11299,43.55543],[-6.01727,43.58826],[-5.9971,43.57412],[-5.95633,43.57976],[-5.91499,43.60802],[-5.91479,43.62371],[-5.88725,43.62322],[-5.86667,43.63132],[-5.84083,43.66062]]]]}},{"type":"Feature","properties":{"territory_id":"comunidad_valenciana","code":"10","display_name":"Comunidad Valenciana"},"geometry":{"type":"MultiPolygon","coordinates":[[[[-0.16496,40.78863],[-0.14453,40.78544],[-0.12684,40.75332],[-0.0647,40.72741],[0.01574,40.72843],[0.02644,40.69495],[0.04217,40.69101],[0.1125,40.72714],[0.14392,40.71825],[0.22612,40.73316],[0.23652,40.70168],[0.26243,40.70585],[0.29184,40.68855],[0.26783,40.659],[0.27883,40.63006],[0.40196,40.60238],[0.44394,40.57822],[0.43796,40.54706],[0.5147,40.52305],[0.4778,40.45874],[0.41783,40.40059],[0.40845,40.35735],[0.27836,40.24415],[0.264,40.20855],[0.19366,40.17375],[0.14755,40.08291],[0.04806,40.03344],[-0.00516,39.91517],[-0.1208,39.81478],[-0.19022,39.71997],[-0.20815,39.6433],[-0.21574,39.65512],[-0.25433,39.62082],[-0.31572,39.52387],[-0.32126,39.4634],[-0.30197,39.44931],[-0.30221,39.43393],[-0.33135,39.4598],[-0.31662,39.44334],[-0.3283,39.44443],[-0.33443,39.43366],[-0.31009,39.42809],[-0.33572,39.42469],[-0.31329,39.35374],[-0.21628,39.18634],[-0.23946,39.17432],[-0.23634,39.13641],[-0.18953,39.04273],[-0.14429,38.99528],[-0.15629,38.99811],[-0.16114,38.99237],[-0.14678,38.99443],[-0.10707,38.94211],[-0.01976,38.87459],[0.1258,38.8486],[0.1095,38.84553],[0.197,38.80447],[0.18206,38.79385],[0.19024,38.77347],[0.22477,38.76428],[0.22165,38.75825],[0.224,38.74896],[0.23399,38.73711],[0.18241,38.72078],[0.14861,38.67926],[0.09846,38.67284],[0.07359,38.6447],[0.08386,38.63103],[0.05137,38.64131],[0.03055,38.62592],[-0.01588,38.62666],[-0.06174,38.58205],[-0.04958,38.56219],[-0.09756,38.52347],[-0.14982,38.53565],[-0.17203,38.51625],[-0.31217,38.47743],[-0.38665,38.43142],[-0.40542,38.39853],[-0.40384,38.35248],[-0.44426,38.36325],[-0.5057,38.33255],[-0.51993,38.29757],[-0.50972,38.20254],[-0.61482,38.17271],[-0.63874,38.12953],[-0.6557,37.9832],[-0.69674,37.96947],[-0.78171,37.84481],[-0.83191,37.86513],[-0.90018,37.92313],[-1.0226,38.07569],[-1.03676,38.13772],[-0.98855,38.19953],[-0.96768,38.27564],[-0.98915,38.32088],[-1.08438,38.34622],[-1.08806,38.36777],[-1.07721,38.43147],[-1.09416,38.43793],[-1.01364,38.49673],[-1.02606,38.52282],[-1.00157,38.57267],[-1.02693,38.65552],[-0.96247,38.65693],[-0.91579,38.69597],[-0.96143,38.77479],[-0.92894,38.78383],[-0.92454,38.89175],[-0.95652,38.92012],[-0.95941,38.94458],[-1.14665,38.92935],[-1.22654,39.02467],[-1.2639,39.04509],[-1.25572,39.10617],[-1.18083,39.21182],[-1.16189,39.30542],[-1.33665,39.334],[-1.41468,39.3803],[-1.42603,39.36276],[-1.43229,39.37758],[-1.4551,39.36085],[-1.45274,39.39867],[-1.47331,39.39115],[-1.47057,39.40751],[-1.48881,39.40165],[-1.48325,39.42246],[-1.49899,39.41536],[-1.49665,39.42932],[-1.52172,39.43268],[-1.49915,39.50045],[-1.5026,39.54562],[-1.52066,39.54997],[-1.46208,39.57662],[-1.41793,39.65494],[-1.36854,39.68962],[-1.31283,39.67048],[-1.2679,39.69115],[-1.27541,39.73864],[-1.215,39.80877],[-1.20004,39.85871],[-1.20362,39.94957],[-0.98938,39.98183],[-0.91851,39.96267],[-0.90266,39.93185],[-0.91279,39.87305],[-0.88857,39.85211],[-0.86355,39.84741],[-0.7977,39.88107],[-0.84042,39.92495],[-0.83779,39.97681],[-0.77765,39.99841],[-0.75362,40.04661],[-0.68294,40.04422],[-0.62722,40.0762],[-0.61359,40.07001],[-0.62853,40.10258],[-0.57864,40.13734],[-0.54419,40.25166],[-0.49451,40.22873],[-0.42807,40.2438],[-0.38363,40.26485],[-0.40041,40.29485],[-0.38864,40.30694],[-0.36627,40.30505],[-0.34062,40.33999],[-0.28203,40.36529],[-0.28524,40.38632],[-0.34736,40.44394],[-0.27264,40.47376],[-0.27764,40.50153],[-0.30184,40.5154],[-0.29329,40.61104],[-0.37048,40.61359],[-0.38113,40.66423],[-0.32882,40.68028],[-0.307,40.6595],[-0.23599,40.69111],[-0.22403,40.75416],[-0.19718,40.78446],[-0.16496,40.78863]]],[[[-1.29652,40.21075],[-1.28434,40.1715],[-1.2443,40.14597],[-1.24459,40.1158],[-1.14803,40.1145],[-1.07177,40.05111],[-1.13408,40.01575],[-1.24683,39.99518],[-1.37686,40.0165],[-1.42029,40.09351],[-1.4076,40.1014],[-1.45724,40.13506],[-1.44886,40.14534],[-1.3546,40.12947],[-1.31659,40.14966],[-1.32299,40.18486],[-1.29652,40.21075]]],[[[-0.4802,38.16696],[-0.47203,38.16647],[-0.46489,38.16323],[-0.48434,38.16642],[-0.4802,38.16696]]]]}},{"type":"Feature","properties":{"territory_id":"melilla","code":"19","display_name":"Melilla"},"geometry":{"type":"MultiPolygon","coordinates":[[[[-2.95058,35.26546],[-2.97032,35.28865],[-2.95262,35.32029],[-2.92329,35.29019],[-2.95058,35.26546]]]]}},{"type":"Feature","properties":{"territory_id":"comunidad_foral_de_navarra","code":"15","display_name":"Comunidad Foral de Navarra"},"geometry":{"type":"MultiPolygon","coordinates":[[[[-1.6523,43.31024],[-1.62446,43.30577],[-1.63002,43.28504],[-1.60871,43.25199],[-1.57566,43.24994],[-1.55636,43.27938],[-1.56408,43.28878],[-1.53553,43.29493],[-1.43783,43.26686],[-1.41365,43.27367],[-1.38432,43.25367],[-1.38141,43.18968],[-1.40223,43.1779],[-1.41408,43.1283],[-1.47341,43.08664],[-1.44121,43.04635],[-1.35417,43.02812],[-1.33257,43.10762],[-1.27004,43.11826],[-1.30897,43.07117],[-1.26275,43.04402],[-1.21259,43.05169],[-1.1456,43.02582],[-1.14186,43.00737],[-1.11468,43.02393],[-1.08127,43.00064],[-1.01212,42.99258],[-0.9451,42.95345],[-0.90851,42.96448],[-0.80958,42.95137],[-0.75593,42.96805],[-0.72395,42.92236],[-0.78321,42.92173],[-0.8191,42.90067],[-0.81853,42.86937],[-0.85683,42.84689],[-0.86001,42.79856],[-0.84753,42.78592],[-0.86555,42.76285],[-0.90053,42.76047],[-0.9005,42.74309],[-0.92299,42.744],[-0.94868,42.71145],[-1.02798,42.70006],[-1.03681,42.65164],[-1.05193,42.64259],[-1.15205,42.64788],[-1.15712,42.61089],[-1.17978,42.61062],[-1.15803,42.59915],[-1.20192,42.57824],[-1.20279,42.54966],[-1.27071,42.54894],[-1.29348,42.51096],[-1.27278,42.4819],[-1.34151,42.42394],[-1.3599,42.37804],[-1.32908,42.35538],[-1.39908,42.2913],[-1.39137,42.27212],[-1.41753,42.21237],[-1.39191,42.18142],[-1.39888,42.12622],[-1.36676,42.10696],[-1.35228,42.07307],[-1.31059,42.07231],[-1.30482,42.04295],[-1.41824,41.91358],[-1.4776,41.92491],[-1.55926,41.91394],[-1.65415,41.96535],[-1.71522,41.95696],[-1.7669,41.99579],[-1.8337,41.99506],[-1.90158,42.02968],[-1.9023,42.07386],[-1.83242,42.14823],[-1.779,42.1377],[-1.73974,42.14974],[-1.71989,42.13344],[-1.67966,42.15169],[-1.7009,42.17312],[-1.67953,42.19114],[-1.87228,42.25267],[-1.87066,42.28897],[-1.99552,42.36361],[-2.08996,42.34697],[-2.07864,42.36813],[-2.11551,42.39908],[-2.1119,42.41996],[-2.17504,42.40777],[-2.27448,42.44547],[-2.28801,42.46736],[-2.29872,42.45741],[-2.32999,42.4688],[-2.34504,42.4513],[-2.35224,42.46563],[-2.40017,42.47178],[-2.42375,42.50963],[-2.3922,42.51695],[-2.39675,42.5991],[-2.42112,42.60712],[-2.45324,42.56711],[-2.4622,42.58739],[-2.49063,42.58535],[-2.49931,42.61048],[-2.4158,42.66268],[-2.37626,42.65071],[-2.38195,42.6343],[-2.28848,42.65507],[-2.29358,42.67794],[-2.31686,42.6825],[-2.32401,42.72377],[-2.31685,42.73935],[-2.26217,42.74846],[-2.28101,42.78513],[-2.23371,42.84051],[-2.25307,42.89277],[-2.23776,42.896],[-2.23557,42.92661],[-2.21026,42.94991],[-2.18096,42.93513],[-2.11763,42.94225],[-2.09524,42.97255],[-2.03834,42.98099],[-2.02282,43.06519],[-1.94752,43.09753],[-1.90195,43.13585],[-1.92069,43.15063],[-1.91415,43.22517],[-1.88191,43.20679],[-1.88093,43.22878],[-1.86769,43.2305],[-1.86058,43.21209],[-1.79497,43.24693],[-1.78324,43.28682],[-1.6523,43.31024]]],[[[-1.09623,42.48566],[-1.05436,42.4488],[-1.05645,42.43432],[-1.12936,42.44672],[-1.09623,42.48566]]],[[[-1.14859,42.44104],[-1.15836,42.41002],[-1.1878,42.40303],[-1.18283,42.42459],[-1.14859,42.44104]]]]}},{"type":"Feature","properties":{"territory_id":"galicia","code":"12","display_name":"Galicia"},"geometry":{"type":"MultiPolygon","coordinates":[[[[-7.68131,43.78727],[-7.66231,43.77481],[-7.70135,43.73561],[-7.6831,43.73002],[-7.67314,43.74641],[-7.63639,43.75297],[-7.5988,43.66343],[-7.60067,43.68179],[-7.57628,43.693],[-7.5845,43.71184],[-7.56043,43.71024],[-7.55707,43.72995],[-7.52399,43.73678],[-7.3571,43.67121],[-7.2944,43.59234],[-7.24553,43.57517],[-7.2711,43.56258],[-7.2558,43.54691],[-7.2361,43.56915],[-7.03451,43.55],[-7.04827,43.47708],[-7.08915,43.45512],[-7.10166,43.42748],[-7.17299,43.43041],[-7.16855,43.40359],[-7.18249,43.39246],[-7.12753,43.3726],[-7.13121,43.33135],[-7.10093,43.30381],[-7.05978,43.30533],[-7.07151,43.27122],[-7.06159,43.24405],[-6.97102,43.20425],[-6.9649,43.18755],[-6.98077,43.16655],[-6.95736,43.13548],[-6.88541,43.1568],[-6.86825,43.19002],[-6.82155,43.14324],[-6.87135,43.09121],[-6.91559,43.07342],[-6.93869,43.08651],[-6.99717,43.01948],[-6.96196,42.99072],[-6.9571,43.03678],[-6.91032,42.99014],[-6.8643,42.98348],[-6.83609,42.95776],[-6.84187,42.9282],[-6.82419,42.91506],[-6.84799,42.91432],[-6.81489,42.87082],[-6.83374,42.88206],[-6.87128,42.87384],[-6.84032,42.82337],[-6.86743,42.78717],[-7.04519,42.69476],[-7.00436,42.64287],[-7.04701,42.6327],[-7.05017,42.59731],[-7.03356,42.58409],[-7.06967,42.55395],[-7.05985,42.52932],[-7.07705,42.50819],[-6.97854,42.49325],[-6.96009,42.51776],[-6.9322,42.52054],[-6.86006,42.48876],[-6.82278,42.49086],[-6.80832,42.46861],[-6.82277,42.45291],[-6.81427,42.42735],[-6.84231,42.40362],[-6.73395,42.35911],[-6.74115,42.29866],[-6.767,42.25746],[-6.80318,42.23867],[-6.78714,42.21572],[-6.8436,42.2283],[-6.87824,42.21952],[-7.03359,42.07424],[-7.01183,42.05242],[-6.97479,42.05516],[-6.9611,42.02791],[-7.00623,41.95051],[-7.07352,41.95031],[-7.08756,41.97391],[-7.14057,41.99083],[-7.17711,41.98003],[-7.18992,41.94176],[-7.1735,41.91954],[-7.19729,41.88006],[-7.31581,41.84284],[-7.36728,41.85168],[-7.42729,41.80748],[-7.42564,41.83106],[-7.4528,41.86514],[-7.50214,41.86963],[-7.52109,41.84192],[-7.61359,41.82928],[-7.58627,41.88203],[-7.65385,41.88137],[-7.70116,41.90805],[-7.84498,41.88153],[-7.84561,41.86394],[-7.87648,41.84947],[-7.89193,41.85993],[-7.89267,41.92726],[-7.90897,41.92288],[-7.92098,41.87902],[-7.98086,41.87237],[-8.01326,41.82882],[-8.09387,41.80895],[-8.16511,41.81827],[-8.17061,41.87905],[-8.19972,41.87402],[-8.21702,41.91363],[-8.16348,41.98271],[-8.08773,42.01471],[-8.08284,42.03607],[-8.09689,42.07181],[-8.11852,42.08211],[-8.18232,42.06686],[-8.19904,42.15441],[-8.32243,42.10195],[-8.3319,42.0842],[-8.52355,42.07845],[-8.55674,42.0514],[-8.63704,42.04707],[-8.6635,42.00221],[-8.74412,41.96526],[-8.75536,41.93482],[-8.87158,41.86633],[-8.90068,42.11229],[-8.85164,42.12828],[-8.82604,42.11508],[-8.82013,42.14138],[-8.8502,42.15651],[-8.82251,42.15708],[-8.77523,42.22213],[-8.71274,42.24105],[-8.66119,42.28488],[-8.61087,42.28751],[-8.62373,42.30987],[-8.61212,42.3462],[-8.62882,42.35108],[-8.66023,42.29076],[-8.71201,42.27573],[-8.73148,42.28669],[-8.79256,42.24634],[-8.81385,42.25944],[-8.85519,42.26141],[-8.87302,42.24998],[-8.85585,42.3098],[-8.8316,42.27809],[-8.81687,42.27869],[-8.81844,42.31352],[-8.83916,42.33913],[-8.79113,42.32704],[-8.75502,42.33992],[-8.73686,42.3766],[-8.65193,42.42837],[-8.68116,42.42107],[-8.69518,42.43768],[-8.77471,42.38766],[-8.81332,42.40117],[-8.8389,42.38427],[-8.88094,42.41485],[-8.87119,42.43526],[-8.88338,42.45553],[-8.94167,42.46343],[-8.87162,42.5012],[-8.85551,42.47275],[-8.87275,42.46161],[-8.86943,42.44805],[-8.85593,42.45076],[-8.8481,42.46033],[-8.81964,42.45177],[-8.83089,42.48433],[-8.80532,42.5008],[-8.83487,42.56479],[-8.79518,42.58007],[-8.78529,42.59959],[-8.77221,42.59324],[-8.779,42.61415],[-8.74121,42.64901],[-8.7239,42.67802],[-8.72555,42.68762],[-8.74698,42.65079],[-8.77,42.65308],[-8.8001,42.63641],[-8.8446,42.68704],[-8.84,42.66103],[-8.85204,42.66522],[-8.8611,42.64643],[-8.83774,42.63229],[-8.85893,42.6266],[-8.85739,42.60637],[-8.88768,42.61053],[-8.8735,42.63238],[-8.89892,42.64456],[-8.93729,42.60709],[-8.91988,42.587],[-8.9883,42.56584],[-8.99591,42.52957],[-9.0428,42.51734],[-9.02973,42.54802],[-9.03926,42.56556],[-9.09142,42.57648],[-9.04053,42.63736],[-9.0338,42.6952],[-8.87572,42.82891],[-8.96312,42.77857],[-9.01784,42.78097],[-9.02018,42.80071],[-9.06388,42.78691],[-9.04789,42.76968],[-9.08943,42.73842],[-9.15105,42.79805],[-9.11218,42.81299],[-9.10819,42.8355],[-9.13824,42.84986],[-9.14562,42.8672],[-9.15022,42.87215],[-9.12548,42.90561],[-9.16077,42.91188],[-9.17278,42.9443],[-9.19099,42.9519],[-9.18905,42.91531],[-9.23317,42.941],[-9.28101,42.88952],[-9.27549,42.91027],[-9.29791,42.92317],[-9.25723,43.00238],[-9.27915,43.01231],[-9.2993,43.05633],[-9.26192,43.04858],[-9.24954,43.07146],[-9.25776,43.09069],[-9.22101,43.08843],[-9.2202,43.11399],[-9.19841,43.10398],[-9.19038,43.09008],[-9.16734,43.10522],[-9.16452,43.15271],[-9.19273,43.12209],[-9.2156,43.15153],[-9.18743,43.16103],[-9.17449,43.1916],[-9.07823,43.18123],[-9.03985,43.1962],[-9.00988,43.22459],[-9.01293,43.23344],[-8.99599,43.21627],[-8.9809,43.22935],[-8.93975,43.22687],[-8.95276,43.26347],[-8.97686,43.26199],[-8.99129,43.27474],[-8.98481,43.28231],[-8.95679,43.29374],[-8.92772,43.28198],[-8.9064,43.29418],[-8.91146,43.30304],[-8.90657,43.30608],[-8.9118,43.32092],[-8.87553,43.3125],[-8.84833,43.31956],[-8.8412,43.34528],[-8.785,43.30386],[-8.74772,43.2943],[-8.72591,43.29893],[-8.71159,43.28997],[-8.60718,43.32234],[-8.56811,43.31178],[-8.53503,43.31596],[-8.50587,43.33063],[-8.4933,43.36039],[-8.45674,43.35981],[-8.43976,43.3815],[-8.40886,43.36926],[-8.40077,43.38997],[-8.37429,43.36505],[-8.40402,43.36368],[-8.37844,43.35727],[-8.38704,43.33948],[-8.35607,43.34354],[-8.33779,43.37695],[-8.35529,43.39035],[-8.30686,43.40567],[-8.20882,43.32784],[-8.22305,43.38689],[-8.1737,43.41989],[-8.23317,43.42929],[-8.25937,43.41786],[-8.2797,43.43662],[-8.31656,43.44501],[-8.25492,43.46618],[-8.20147,43.46007],[-8.15137,43.51749],[-8.20048,43.47718],[-8.24859,43.47619],[-8.24733,43.49333],[-8.26619,43.46771],[-8.34109,43.45837],[-8.31969,43.49804],[-8.33227,43.51304],[-8.29632,43.53502],[-8.32207,43.56523],[-8.26008,43.5579],[-8.09329,43.66662],[-8.08682,43.66148],[-8.07729,43.64421],[-8.05387,43.64894],[-8.07589,43.66027],[-8.06414,43.70406],[-8.03298,43.71459],[-8.02557,43.70914],[-8.00039,43.70511],[-7.90446,43.76986],[-7.86835,43.77355],[-7.84927,43.71031],[-7.87602,43.72328],[-7.86935,43.70717],[-7.892,43.68475],[-7.87186,43.67199],[-7.90448,43.67135],[-7.84697,43.6682],[-7.86824,43.6979],[-7.86048,43.70674],[-7.83404,43.71106],[-7.83885,43.6962],[-7.81493,43.69514],[-7.82956,43.71007],[-7.81257,43.72658],[-7.72545,43.74675],[-7.68131,43.78727]]],[[[-8.87672,42.57487],[-8.85588,42.56599],[-8.87175,42.52414],[-8.87534,42.52979],[-8.8818,42.53019],[-8.87001,42.56091],[-8.87448,42.56332],[-8.88074,42.55768],[-8.89191,42.56847],[-8.87672,42.57487]]],[[[-8.92171,42.3997],[-8.91995,42.39612],[-8.93655,42.3568],[-8.94422,42.35509],[-8.94507,42.3804],[-8.93211,42.39824],[-8.92171,42.3997]]],[[[-8.91397,42.25146],[-8.89547,42.2274],[-8.91392,42.21134],[-8.90351,42.22434],[-8.9176,42.24843],[-8.91397,42.25146]]],[[[-9.0129,42.48356],[-8.99936,42.4688],[-9.01043,42.46296],[-9.02037,42.47434],[-9.0129,42.48356]]],[[[-8.9074,42.20539],[-8.89202,42.19633],[-8.88965,42.19113],[-8.91268,42.19555],[-8.9074,42.20539]]],[[[-8.84195,42.50083],[-8.84412,42.48548],[-8.8524,42.48297],[-8.8529,42.48929],[-8.84195,42.50083]]],[[[-8.83807,43.36254],[-8.8441,43.35525],[-8.84971,43.36124],[-8.84455,43.36107],[-8.83807,43.36254]]],[[[-8.77882,42.62069],[-8.7863,42.61407],[-8.79044,42.61657],[-8.787,42.62096],[-8.77882,42.62069]]],[[[-8.70626,42.41004],[-8.70818,42.40764],[-8.71242,42.41262],[-8.70805,42.4147],[-8.70626,42.41004]]],[[[-8.89742,42.54359],[-8.90076,42.53738],[-8.90292,42.53796],[-8.90415,42.54118],[-8.89742,42.54359]]]]}},{"type":"Feature","properties":{"territory_id":"aragon","code":"02","display_name":"Aragón"},"geometry":{"type":"MultiPolygon","coordinates":[[[[-0.74727,42.92237],[-0.72449,42.92023],[-0.73635,42.91302],[-0.71758,42.88584],[-0.67875,42.88454],[-0.60202,42.83215],[-0.60047,42.80243],[-0.56914,42.80686],[-0.56759,42.78063],[-0.52965,42.79156],[-0.50527,42.82743],[-0.4417,42.79537],[-0.39475,42.79897],[-0.31326,42.84937],[-0.18866,42.78694],[-0.15999,42.79803],[-0.10641,42.72062],[-0.06846,42.71807],[-0.06212,42.69459],[-0.01666,42.68511],[0.1758,42.73704],[0.26,42.71601],[0.2637,42.69324],[0.29527,42.67319],[0.36023,42.72435],[0.42209,42.69046],[0.58736,42.69449],[0.59709,42.70552],[0.66007,42.69085],[0.6959,42.65893],[0.70363,42.62383],[0.76753,42.61124],[0.74106,42.54483],[0.74955,42.53488],[0.72116,42.52454],[0.73976,42.50515],[0.69049,42.48762],[0.7461,42.38478],[0.72327,42.36563],[0.77131,42.35064],[0.74036,42.33687],[0.76462,42.32248],[0.70262,42.19004],[0.69873,42.1723],[0.71397,42.16342],[0.69583,42.152],[0.69955,42.10696],[0.65171,42.02625],[0.66287,42.01223],[0.56188,41.93822],[0.60749,41.91931],[0.59466,41.9174],[0.59278,41.88441],[0.60716,41.8718],[0.48323,41.80146],[0.4686,41.76498],[0.39868,41.75781],[0.39544,41.73198],[0.38474,41.74031],[0.32702,41.67817],[0.35798,41.63172],[0.34961,41.59946],[0.42849,41.60238],[0.44692,41.54224],[0.39671,41.4903],[0.34202,41.484],[0.35533,41.45176],[0.32004,41.39418],[0.37397,41.35154],[0.34844,41.32887],[0.38566,41.27884],[0.38131,41.23643],[0.3224,41.22524],[0.29199,41.15636],[0.20094,41.12608],[0.21774,41.04366],[0.27966,41.02017],[0.25864,41.01463],[0.2935,40.97056],[0.23891,40.8847],[0.27819,40.8209],[0.23357,40.78699],[0.22997,40.76743],[0.17522,40.75494],[0.17536,40.74113],[0.15918,40.75061],[0.16381,40.72361],[0.1125,40.72714],[0.04217,40.69101],[0.02644,40.69495],[0.01574,40.72843],[-0.0647,40.72741],[-0.12684,40.75332],[-0.14453,40.78544],[-0.16496,40.78863],[-0.19718,40.78446],[-0.22403,40.75416],[-0.23599,40.69111],[-0.307,40.6595],[-0.32882,40.68028],[-0.37796,40.66754],[-0.37048,40.61359],[-0.29329,40.61104],[-0.30184,40.5154],[-0.27764,40.50153],[-0.27264,40.47376],[-0.34736,40.44394],[-0.28539,40.38649],[-0.28176,40.3657],[-0.34062,40.33999],[-0.36627,40.30505],[-0.38864,40.30694],[-0.40041,40.29485],[-0.38363,40.26485],[-0.42807,40.2438],[-0.49451,40.22873],[-0.54419,40.25166],[-0.57864,40.13734],[-0.62853,40.10258],[-0.61359,40.07001],[-0.62722,40.0762],[-0.68294,40.04422],[-0.75362,40.04661],[-0.77765,39.99841],[-0.83779,39.97681],[-0.84042,39.92495],[-0.7977,39.88107],[-0.86742,39.84678],[-0.91256,39.87235],[-0.90266,39.93185],[-0.92045,39.9644],[-0.93189,39.95608],[-0.98938,39.98183],[-1.10502,39.97498],[-1.12175,39.96085],[-1.1424,39.97184],[-1.16519,40.0101],[-1.08423,40.03621],[-1.07213,40.06048],[-1.14803,40.1145],[-1.24459,40.1158],[-1.29778,40.21153],[-1.32299,40.18486],[-1.31972,40.14639],[-1.3571,40.12889],[-1.43332,40.13947],[-1.44886,40.14534],[-1.43921,40.19701],[-1.47442,40.18504],[-1.5109,40.20372],[-1.54048,40.1908],[-1.69035,40.30966],[-1.72122,40.2787],[-1.72946,40.30291],[-1.69768,40.32129],[-1.77777,40.39188],[-1.80636,40.39823],[-1.80205,40.41134],[-1.78543,40.41318],[-1.7486,40.4629],[-1.69251,40.48682],[-1.70162,40.5411],[-1.6781,40.59095],[-1.59875,40.56205],[-1.54551,40.59519],[-1.56486,40.61474],[-1.53564,40.68702],[-1.56202,40.73975],[-1.53991,40.76073],[-1.54233,40.81122],[-1.62139,40.8804],[-1.6079,40.92762],[-1.61745,40.94373],[-1.80329,41.08989],[-1.93245,41.13859],[-1.95902,41.17249],[-2.05169,41.14685],[-2.0799,41.17098],[-2.14624,41.1844],[-2.17367,41.28809],[-2.16314,41.35535],[-2.11603,41.38205],[-2.11677,41.42495],[-2.10152,41.44579],[-2.03562,41.42689],[-2.04358,41.39715],[-2.02927,41.38416],[-1.93729,41.40785],[-1.95369,41.42426],[-1.95328,41.46245],[-1.98111,41.48644],[-1.96734,41.54607],[-1.99369,41.57709],[-1.99324,41.60051],[-1.9231,41.59833],[-1.85899,41.66153],[-1.80622,41.66426],[-1.81207,41.68645],[-1.78686,41.69943],[-1.77537,41.72479],[-1.80921,41.73666],[-1.80585,41.75508],[-1.85292,41.78956],[-1.81905,41.82875],[-1.8176,41.85338],[-1.85728,41.90951],[-1.86519,41.9776],[-1.84404,41.98733],[-1.84719,42.008],[-1.8337,41.99506],[-1.7669,41.99579],[-1.71522,41.95696],[-1.65415,41.96535],[-1.55926,41.91394],[-1.41076,41.91895],[-1.33952,42.01801],[-1.30482,42.04295],[-1.31059,42.07231],[-1.35228,42.07307],[-1.36676,42.10696],[-1.39888,42.12622],[-1.39191,42.18142],[-1.41753,42.21237],[-1.39137,42.27212],[-1.39908,42.2913],[-1.32908,42.35538],[-1.3599,42.37804],[-1.34151,42.42394],[-1.27278,42.4819],[-1.28814,42.52279],[-1.26477,42.5568],[-1.22617,42.54224],[-1.20279,42.54966],[-1.20192,42.57824],[-1.15803,42.59915],[-1.17978,42.61062],[-1.15712,42.61089],[-1.15205,42.64788],[-1.05193,42.64259],[-1.03681,42.65164],[-1.02798,42.70006],[-0.94868,42.71145],[-0.92299,42.744],[-0.9005,42.74309],[-0.90053,42.76047],[-0.86484,42.76335],[-0.84753,42.78592],[-0.86001,42.79856],[-0.85683,42.84689],[-0.81853,42.86937],[-0.8191,42.90067],[-0.74727,42.92237]],[[-1.12558,42.45586],[-1.10802,42.44132],[-1.05101,42.44146],[-1.09166,42.48573],[-1.12558,42.45586]],[[-1.14898,42.43285],[-1.18283,42.42459],[-1.1878,42.40303],[-1.15877,42.40966],[-1.14898,42.43285]]]]}},{"type":"Feature","properties":{"territory_id":"madrid","code":"13","display_name":"Comunidad de Madrid"},"geometry":{"type":"MultiPolygon","coordinates":[[[[-3.5367,41.16058],[-3.48875,41.09429],[-3.4258,41.0829],[-3.43893,41.04267],[-3.39445,41.00028],[-3.4183,40.98756],[-3.44406,40.90685],[-3.46058,40.90666],[-3.44049,40.87535],[-3.47257,40.86422],[-3.47739,40.82356],[-3.51157,40.7885],[-3.45901,40.78132],[-3.44434,40.76158],[-3.45042,40.73489],[-3.43494,40.72799],[-3.46855,40.68994],[-3.40474,40.66964],[-3.39335,40.69246],[-3.3456,40.63774],[-3.3165,40.65518],[-3.33852,40.62585],[-3.32164,40.61219],[-3.32828,40.59484],[-3.28407,40.56898],[-3.29713,40.53752],[-3.24992,40.54432],[-3.19996,40.51445],[-3.1986,40.44225],[-3.15551,40.43942],[-3.13056,40.40519],[-3.19445,40.24804],[-3.1734,40.23417],[-3.15372,40.26371],[-3.11267,40.28548],[-3.10153,40.27809],[-3.06785,40.15791],[-3.08928,40.16297],[-3.09675,40.14239],[-3.05619,40.11374],[-3.06071,40.09056],[-3.11819,40.06143],[-3.16158,40.06493],[-3.17814,40.09221],[-3.20096,40.06049],[-3.27576,40.04728],[-3.33224,40.08048],[-3.37529,40.07539],[-3.37578,40.05125],[-3.40107,40.03418],[-3.50686,40.04867],[-3.51969,40.02107],[-3.59,40.01317],[-3.63794,39.98835],[-3.6345,39.96589],[-3.74387,39.9408],[-3.8044,39.88472],[-3.86833,39.90486],[-3.87519,39.92874],[-3.72794,39.96455],[-3.74621,39.98109],[-3.72009,39.98444],[-3.69989,40.01954],[-3.63609,40.04163],[-3.60763,40.10897],[-3.65573,40.12491],[-3.66731,40.14329],[-3.77045,40.1394],[-3.8046,40.17684],[-3.83419,40.16135],[-3.87202,40.19015],[-3.93114,40.20398],[-3.95089,40.19033],[-3.95287,40.2128],[-3.991,40.20948],[-4.02616,40.23561],[-4.02403,40.24897],[-4.07289,40.26545],[-4.10427,40.24183],[-4.14577,40.24518],[-4.14399,40.26462],[-4.19087,40.29736],[-4.20323,40.26882],[-4.248,40.27348],[-4.26996,40.23568],[-4.30611,40.22178],[-4.30799,40.23388],[-4.34849,40.23675],[-4.35639,40.30862],[-4.38011,40.31834],[-4.38348,40.28905],[-4.43525,40.25913],[-4.43743,40.2367],[-4.50979,40.21919],[-4.52791,40.20009],[-4.57499,40.20664],[-4.55933,40.23127],[-4.56879,40.25871],[-4.52938,40.29313],[-4.54622,40.34183],[-4.52679,40.34487],[-4.5029,40.31489],[-4.45576,40.31935],[-4.42173,40.40623],[-4.32109,40.41031],[-4.34125,40.42868],[-4.31568,40.46477],[-4.32822,40.53376],[-4.28926,40.56419],[-4.27857,40.60317],[-4.29071,40.62782],[-4.2711,40.62902],[-4.26214,40.60518],[-4.24544,40.60245],[-4.16118,40.62347],[-4.17285,40.63036],[-4.17157,40.68063],[-4.09699,40.74774],[-4.0767,40.78888],[-3.97968,40.78455],[-3.94711,40.86297],[-3.95228,40.89363],[-3.9072,40.9553],[-3.78137,41.00031],[-3.74045,41.05364],[-3.67606,41.0867],[-3.6137,41.14905],[-3.5367,41.16058]],[[-3.37226,40.63561],[-3.38026,40.63285],[-3.38213,40.63047],[-3.36367,40.6316],[-3.37226,40.63561]]],[[[-4.25573,40.65317],[-4.31951,40.64764],[-4.32412,40.65803],[-4.28482,40.68122],[-4.25573,40.65317]]]]}},{"type":"Feature","properties":{"territory_id":"extremadura","code":"11","display_name":"Extremadura"},"geometry":{"type":"MultiPolygon","coordinates":[[[[-6.23048,40.4866],[-6.06513,40.39693],[-6.10572,40.35679],[-6.01602,40.34029],[-6.00594,40.3058],[-5.93778,40.28107],[-5.91717,40.2777],[-5.88424,40.3266],[-5.79934,40.35375],[-5.78199,40.31246],[-5.80274,40.29763],[-5.79314,40.2867],[-5.69266,40.29211],[-5.6492,40.24972],[-5.622,40.24588],[-5.61452,40.2183],[-5.54812,40.19724],[-5.47091,40.20785],[-5.4291,40.25261],[-5.34321,40.26405],[-5.36967,40.21831],[-5.36799,40.16411],[-5.33598,40.11582],[-5.36901,40.10008],[-5.36514,39.98292],[-5.40611,39.87773],[-5.32361,39.89173],[-5.28405,39.86388],[-5.31259,39.82428],[-5.30808,39.76002],[-5.25482,39.75234],[-5.20646,39.79756],[-5.1669,39.79988],[-5.15846,39.75966],[-5.17396,39.75126],[-5.13779,39.715],[-5.16176,39.64244],[-5.20662,39.59723],[-4.95033,39.39346],[-4.87094,39.36831],[-4.77461,39.39719],[-4.6877,39.45029],[-4.6695,39.42454],[-4.70421,39.36445],[-4.70666,39.32773],[-4.76101,39.32079],[-4.70823,39.20987],[-4.64758,39.16873],[-4.81027,39.19942],[-4.85317,39.15244],[-4.8744,39.10043],[-4.82693,39.06412],[-4.83279,39.04616],[-4.87999,39.03243],[-4.9625,39.05873],[-4.91822,38.95705],[-4.83242,38.93891],[-4.84732,38.8824],[-4.91494,38.88744],[-4.94348,38.85438],[-4.98999,38.73976],[-5.09919,38.70765],[-5.1845,38.7197],[-5.16732,38.68047],[-5.18576,38.67417],[-5.18423,38.65973],[-5.20848,38.6677],[-5.30851,38.57762],[-5.37175,38.58357],[-5.41862,38.51273],[-5.56892,38.43259],[-5.58507,38.38584],[-5.55925,38.36689],[-5.57565,38.32911],[-5.55123,38.31098],[-5.5225,38.2384],[-5.53967,38.16069],[-5.57586,38.14964],[-5.58479,38.13171],[-5.6325,38.13856],[-5.71043,38.08105],[-5.7349,38.08626],[-5.74074,38.12654],[-5.69471,38.15035],[-5.70579,38.16938],[-5.68424,38.15706],[-5.69473,38.18652],[-5.72816,38.19742],[-5.75728,38.18056],[-5.85152,38.17191],[-5.87738,38.15572],[-5.88066,38.13228],[-5.92638,38.10501],[-5.90898,38.06285],[-5.93422,38.04688],[-5.95369,37.99535],[-6.11531,37.98177],[-6.18024,37.94103],[-6.20152,37.96206],[-6.30363,37.97834],[-6.35271,38.0074],[-6.36725,38.04892],[-6.4139,38.05856],[-6.45244,38.05596],[-6.44361,38.04696],[-6.47656,38.00783],[-6.54569,38.02812],[-6.58358,38.02128],[-6.58053,38.05277],[-6.6221,38.09701],[-6.73282,38.08995],[-6.77009,38.09946],[-6.77006,38.11211],[-6.80834,38.11124],[-6.79509,38.17854],[-6.85534,38.17903],[-6.93781,38.20693],[-6.93647,38.22052],[-7.08561,38.1694],[-7.28052,38.42035],[-7.33573,38.43467],[-7.29558,38.47777],[-7.32262,38.47823],[-7.30304,38.54491],[-7.24413,38.62363],[-7.26969,38.63879],[-7.2553,38.72589],[-7.03934,38.86478],[-7.03314,38.87918],[-7.05204,38.90716],[-6.95132,39.024],[-6.99587,39.09926],[-7.0391,39.11838],[-7.1058,39.09932],[-7.14381,39.10925],[-7.13459,39.1711],[-7.24135,39.20854],[-7.24788,39.25353],[-7.2314,39.27836],[-7.30831,39.33683],[-7.32348,39.38193],[-7.2965,39.4589],[-7.38127,39.49181],[-7.39112,39.52988],[-7.42974,39.53451],[-7.46088,39.57263],[-7.49589,39.58644],[-7.54502,39.66349],[-7.33284,39.64117],[-7.25014,39.6672],[-7.1493,39.6529],[-7.01534,39.67079],[-6.97672,39.7727],[-6.98691,39.8101],[-6.90353,39.87131],[-6.90894,39.91916],[-6.88577,39.94044],[-6.88563,39.98041],[-6.86409,40.01245],[-6.94164,40.11287],[-6.99344,40.11272],[-7.0119,40.12687],[-7.01565,40.17806],[-7.02887,40.18531],[-7.01216,40.22648],[-6.96456,40.23758],[-6.95054,40.25825],[-6.86509,40.27063],[-6.83452,40.24758],[-6.7556,40.23892],[-6.71858,40.2692],[-6.69014,40.24266],[-6.67175,40.26323],[-6.58702,40.27072],[-6.55617,40.29078],[-6.56041,40.32905],[-6.53628,40.34724],[-6.27533,40.45852],[-6.23048,40.4866]]]]}},{"type":"Feature","properties":{"territory_id":"castilla_la_mancha","code":"08","display_name":"Castilla-La Mancha"},"geometry":{"type":"MultiPolygon","coordinates":[[[[-2.90102,41.32556],[-2.86899,41.31706],[-2.86689,41.27446],[-2.82225,41.25661],[-2.77551,41.25008],[-2.76095,41.27402],[-2.71677,41.27567],[-2.70955,41.25198],[-2.64601,41.24021],[-2.6292,41.21522],[-2.58949,41.22454],[-2.59374,41.2002],[-2.62207,41.18799],[-2.57749,41.17866],[-2.59531,41.15025],[-2.57558,41.13947],[-2.53651,41.16253],[-2.50885,41.11886],[-2.48226,41.11627],[-2.46947,41.07811],[-2.41891,41.05771],[-2.35533,41.08645],[-2.32341,41.05651],[-2.26354,41.06753],[-2.23215,41.09701],[-2.1753,41.08375],[-2.13185,41.1181],[-2.05643,41.06969],[-2.04818,41.07838],[-2.06562,41.09579],[-2.04762,41.15265],[-1.95902,41.17249],[-1.93245,41.13859],[-1.80329,41.08989],[-1.61185,40.93756],[-1.62139,40.8804],[-1.54233,40.81122],[-1.53991,40.76073],[-1.56202,40.73975],[-1.53564,40.68702],[-1.56486,40.61474],[-1.54551,40.59519],[-1.59875,40.56205],[-1.6781,40.59095],[-1.70162,40.5411],[-1.69251,40.48682],[-1.7486,40.4629],[-1.80636,40.39823],[-1.77777,40.39188],[-1.69768,40.32129],[-1.72946,40.30291],[-1.71927,40.2771],[-1.69035,40.30966],[-1.54048,40.1908],[-1.5109,40.20372],[-1.47442,40.18504],[-1.43921,40.19701],[-1.45621,40.13095],[-1.4076,40.1014],[-1.42029,40.09351],[-1.37686,40.0165],[-1.24946,39.9951],[-1.16519,40.0101],[-1.1424,39.97184],[-1.20818,39.94381],[-1.20004,39.85871],[-1.215,39.80877],[-1.27541,39.73864],[-1.26199,39.69891],[-1.30785,39.67082],[-1.36854,39.68962],[-1.41793,39.65494],[-1.4618,39.57691],[-1.52054,39.55027],[-1.5026,39.54562],[-1.49915,39.50045],[-1.51245,39.49627],[-1.51339,39.45827],[-1.52892,39.4546],[-1.52085,39.43152],[-1.49665,39.42932],[-1.50517,39.418],[-1.48266,39.42178],[-1.48814,39.40063],[-1.45274,39.39867],[-1.4551,39.36085],[-1.43229,39.37758],[-1.42603,39.36276],[-1.41468,39.3803],[-1.33665,39.334],[-1.31274,39.34317],[-1.165,39.31051],[-1.18083,39.21182],[-1.25572,39.10617],[-1.26675,39.05102],[-1.22654,39.02467],[-1.14665,38.92935],[-0.95941,38.94458],[-0.95652,38.92012],[-0.92454,38.89175],[-0.9357,38.85594],[-0.92488,38.82336],[-0.92894,38.78383],[-0.96143,38.77479],[-0.91579,38.69597],[-0.96247,38.65693],[-1.0341,38.65657],[-1.1156,38.71139],[-1.11967,38.73772],[-1.18363,38.75509],[-1.24976,38.73861],[-1.34407,38.6771],[-1.36667,38.704],[-1.40222,38.6908],[-1.4477,38.64952],[-1.452,38.58146],[-1.48769,38.56331],[-1.49873,38.53206],[-1.47987,38.47984],[-1.47855,38.37638],[-1.58954,38.30999],[-1.67025,38.31165],[-1.69273,38.33782],[-1.68756,38.36583],[-1.70194,38.37492],[-1.7173,38.36365],[-1.74351,38.38129],[-1.90754,38.29796],[-1.98263,38.28137],[-2.04899,38.30578],[-2.11373,38.2382],[-2.21294,38.20302],[-2.26165,38.11296],[-2.32698,38.06869],[-2.34163,38.026],[-2.35792,38.02244],[-2.5513,38.08409],[-2.44628,38.18519],[-2.45434,38.21549],[-2.43539,38.26502],[-2.44137,38.28563],[-2.48521,38.30026],[-2.4834,38.39786],[-2.57355,38.41625],[-2.56662,38.49047],[-2.59709,38.5124],[-2.67969,38.49692],[-2.7677,38.53291],[-2.77996,38.50971],[-2.88149,38.45264],[-2.90579,38.46991],[-2.96359,38.47145],[-2.99351,38.45012],[-3.00171,38.40832],[-3.06497,38.47825],[-3.13829,38.43858],[-3.27942,38.46024],[-3.32649,38.48212],[-3.37501,38.47523],[-3.37668,38.4396],[-3.4517,38.40032],[-3.52844,38.40864],[-3.54189,38.44539],[-3.58308,38.45147],[-3.59824,38.39847],[-3.78561,38.42527],[-3.83006,38.4128],[-3.83056,38.3929],[-3.85428,38.37514],[-3.91512,38.36881],[-4.15656,38.38132],[-4.25778,38.40158],[-4.2768,38.39021],[-4.26887,38.34717],[-4.28733,38.34276],[-4.45299,38.40087],[-4.51269,38.46385],[-4.5663,38.49094],[-4.59369,38.48638],[-4.62278,38.52379],[-4.70395,38.55317],[-4.70737,38.57195],[-4.86017,38.61398],[-4.87697,38.68609],[-5.0046,38.6951],[-5.00802,38.71523],[-5.04695,38.72909],[-4.98999,38.73976],[-4.94348,38.85438],[-4.91494,38.88744],[-4.84732,38.8824],[-4.83113,38.93561],[-4.91822,38.95705],[-4.9625,39.05873],[-4.87999,39.03243],[-4.83279,39.04616],[-4.82693,39.06412],[-4.8744,39.10043],[-4.85317,39.15244],[-4.81027,39.19942],[-4.64789,39.16687],[-4.70823,39.20987],[-4.76101,39.32079],[-4.70666,39.32773],[-4.70421,39.36445],[-4.6695,39.42454],[-4.69028,39.45179],[-4.77461,39.39719],[-4.87094,39.36831],[-4.902,39.3745],[-4.99806,39.42665],[-5.05252,39.48429],[-5.08389,39.49067],[-5.20207,39.59202],[-5.1505,39.66284],[-5.13779,39.715],[-5.17396,39.75126],[-5.15846,39.75966],[-5.1669,39.79988],[-5.20646,39.79756],[-5.25482,39.75234],[-5.30808,39.76002],[-5.31259,39.82428],[-5.28405,39.86388],[-5.32361,39.89173],[-5.40611,39.87773],[-5.36514,39.98292],[-5.36901,40.10008],[-5.33746,40.1159],[-5.21637,40.10801],[-5.20352,40.08343],[-5.17162,40.08482],[-5.08777,40.12432],[-5.06698,40.15092],[-5.01854,40.15905],[-5.01334,40.11106],[-4.95455,40.12113],[-4.95629,40.13335],[-4.92545,40.13604],[-4.92467,40.16998],[-4.80767,40.23532],[-4.81825,40.25477],[-4.80347,40.27526],[-4.76159,40.2609],[-4.69814,40.28219],[-4.68726,40.212],[-4.65423,40.19807],[-4.57908,40.2172],[-4.52791,40.20009],[-4.50979,40.21919],[-4.43743,40.2367],[-4.43525,40.25913],[-4.38348,40.28905],[-4.38011,40.31834],[-4.35639,40.30862],[-4.34849,40.23675],[-4.30799,40.23388],[-4.30611,40.22178],[-4.26996,40.23568],[-4.248,40.27348],[-4.20323,40.26882],[-4.19087,40.29736],[-4.14399,40.26462],[-4.14577,40.24518],[-4.10427,40.24183],[-4.07289,40.26545],[-4.02403,40.24897],[-4.02616,40.23561],[-3.991,40.20948],[-3.95287,40.2128],[-3.95089,40.19033],[-3.93114,40.20398],[-3.87202,40.19015],[-3.83419,40.16135],[-3.8046,40.17684],[-3.77045,40.1394],[-3.66731,40.14329],[-3.65573,40.12491],[-3.60763,40.10897],[-3.63609,40.04163],[-3.69989,40.01954],[-3.72009,39.98444],[-3.74621,39.98109],[-3.72794,39.96455],[-3.87519,39.92874],[-3.86894,39.90524],[-3.81489,39.88574],[-3.74387,39.9408],[-3.6345,39.96589],[-3.63794,39.98835],[-3.59,40.01317],[-3.51969,40.02107],[-3.50654,40.04876],[-3.40107,40.03418],[-3.37578,40.05125],[-3.37771,40.07477],[-3.33442,40.08105],[-3.27487,40.04735],[-3.20096,40.06049],[-3.17795,40.09223],[-3.16143,40.06489],[-3.08972,40.07012],[-3.05298,40.09939],[-3.09675,40.14239],[-3.08928,40.16297],[-3.06785,40.15791],[-3.08576,40.18615],[-3.0797,40.22777],[-3.09675,40.27105],[-3.10944,40.28519],[-3.12824,40.27879],[-3.1734,40.23417],[-3.1972,40.25755],[-3.13056,40.40519],[-3.15551,40.43942],[-3.1986,40.44225],[-3.19996,40.51445],[-3.23046,40.53901],[-3.29713,40.53752],[-3.28407,40.56898],[-3.32828,40.59484],[-3.32164,40.61219],[-3.33852,40.62585],[-3.32368,40.62969],[-3.31386,40.64974],[-3.3165,40.65518],[-3.3456,40.63774],[-3.39335,40.69246],[-3.40474,40.66964],[-3.46855,40.68994],[-3.43494,40.72799],[-3.45042,40.73489],[-3.44434,40.76158],[-3.45901,40.78132],[-3.51157,40.7885],[-3.47739,40.82356],[-3.47257,40.86422],[-3.44049,40.87535],[-3.46058,40.90666],[-3.44406,40.90685],[-3.4183,40.98756],[-3.39445,41.00028],[-3.43893,41.04267],[-3.4258,41.0829],[-3.48875,41.09429],[-3.50926,41.1364],[-3.5411,41.14967],[-3.53972,41.16504],[-3.46692,41.18326],[-3.44415,41.21534],[-3.40249,41.21362],[-3.41515,41.2732],[-3.25426,41.25838],[-3.23124,41.29487],[-3.19976,41.30443],[-3.0619,41.27343],[-2.95013,41.29264],[-2.94119,41.31394],[-2.90102,41.32556]]],[[[-3.37405,40.64025],[-3.36361,40.63842],[-3.37173,40.62577],[-3.38213,40.63047],[-3.37405,40.64025]]]]}},{"type":"Feature","properties":{"territory_id":"pais_vasco","code":"16","display_name":"País Vasco"},"geometry":{"type":"MultiPolygon","coordinates":[[[[-2.75149,43.45665],[-2.73871,43.42969],[-2.69568,43.40676],[-2.64631,43.41594],[-2.61863,43.39186],[-2.50973,43.37737],[-2.50261,43.36422],[-2.45974,43.33557],[-2.35293,43.2987],[-2.20245,43.31173],[-2.18957,43.29236],[-2.1305,43.28746],[-1.92378,43.33203],[-1.86497,43.37238],[-1.79126,43.39591],[-1.79695,43.38249],[-1.77901,43.36341],[-1.78924,43.35298],[-1.73738,43.33015],[-1.72937,43.29382],[-1.78324,43.28682],[-1.79497,43.24693],[-1.86058,43.21209],[-1.86769,43.2305],[-1.88093,43.22878],[-1.88191,43.20679],[-1.91415,43.22517],[-1.92069,43.15063],[-1.90195,43.13585],[-1.94752,43.09753],[-2.02282,43.06519],[-2.03834,42.98099],[-2.09524,42.97255],[-2.11763,42.94225],[-2.18096,42.93513],[-2.19914,42.95118],[-2.23216,42.93179],[-2.23776,42.896],[-2.25307,42.89277],[-2.23541,42.8353],[-2.28101,42.78513],[-2.26217,42.74846],[-2.31685,42.73935],[-2.32401,42.72377],[-2.31686,42.6825],[-2.29358,42.67794],[-2.28848,42.65507],[-2.38195,42.6343],[-2.37626,42.65071],[-2.4158,42.66268],[-2.48307,42.61216],[-2.50008,42.61648],[-2.49063,42.58535],[-2.4622,42.58739],[-2.45324,42.56711],[-2.42112,42.60712],[-2.39675,42.5991],[-2.3922,42.51695],[-2.42312,42.51071],[-2.42058,42.48924],[-2.51472,42.49012],[-2.51059,42.52004],[-2.53735,42.49524],[-2.52982,42.48394],[-2.56826,42.49415],[-2.59465,42.47237],[-2.60498,42.50336],[-2.64625,42.48295],[-2.67735,42.51011],[-2.67578,42.52573],[-2.70549,42.51676],[-2.68177,42.5954],[-2.76372,42.62284],[-2.77795,42.58134],[-2.82499,42.55494],[-2.84085,42.58119],[-2.8199,42.59147],[-2.81877,42.61272],[-2.8418,42.6086],[-2.84289,42.6296],[-2.89572,42.65464],[-2.9025,42.6936],[-2.93136,42.7084],[-2.98063,42.70382],[-3.01695,42.74108],[-3.04201,42.73952],[-3.04965,42.76561],[-3.14791,42.7567],[-3.12325,42.78933],[-3.15923,42.80459],[-3.11315,42.86106],[-3.11494,42.88925],[-3.16282,42.85674],[-3.19069,42.86946],[-3.22218,42.83864],[-3.20553,42.8274],[-3.27908,42.87235],[-3.27724,42.90158],[-3.24855,42.91215],[-3.22473,42.94969],[-3.14473,42.93468],[-3.14927,42.91706],[-3.0921,42.89878],[-3.01891,42.90851],[-2.98119,42.93944],[-3.04148,42.96992],[-3.06026,43.00351],[-3.1778,43.02198],[-3.14186,43.02981],[-3.14031,43.06715],[-3.15819,43.07402],[-3.13394,43.09723],[-3.18179,43.12088],[-3.14136,43.16154],[-3.14829,43.174],[-3.22409,43.17013],[-3.25342,43.19858],[-3.41765,43.13343],[-3.44927,43.23315],[-3.34013,43.27803],[-3.33241,43.30188],[-3.27945,43.29005],[-3.22523,43.30894],[-3.20951,43.28354],[-3.15733,43.30132],[-3.15329,43.35332],[-3.11477,43.35048],[-3.10936,43.36467],[-3.0852,43.37771],[-3.10446,43.36467],[-3.04785,43.35935],[-3.0749,43.35416],[-3.03184,43.34663],[-3.04378,43.33913],[-3.02072,43.32554],[-3.01025,43.33724],[-3.02781,43.34195],[-3.01259,43.34774],[-3.0396,43.37331],[-2.97047,43.41338],[-2.94688,43.41214],[-2.94691,43.43603],[-2.80698,43.43049],[-2.75149,43.45665]],[[-2.83547,42.79627],[-2.86846,42.73992],[-2.7845,42.69894],[-2.7679,42.66601],[-2.65917,42.67246],[-2.63485,42.6478],[-2.5174,42.64633],[-2.52202,42.68403],[-2.57777,42.66821],[-2.60898,42.69596],[-2.57263,42.72517],[-2.5583,42.76273],[-2.58937,42.75032],[-2.60235,42.77063],[-2.64371,42.76472],[-2.73155,42.79451],[-2.82681,42.78445],[-2.83547,42.79627]],[[-3.27478,43.26454],[-3.30584,43.25348],[-3.28505,43.1977],[-3.24942,43.25966],[-3.27478,43.26454]]]]}}]}